[{"type": "node", "id": 1071267923, "lat": 50.9104108, "lon": -1.3992335, "tags": {"addr:city": "Southampton", "addr:postcode": "SO14 0GF", "addr:street": "Oxford Avenue", "amenity": "place_of_worship", "name": "Shahjahal Mosque and Islamic Centre Southampton", "religion": "muslim", "smoking": "no"}}, {"type": "node", "id": 1973800227, "lat": 50.9350389, "lon": -1.3979643, "tags": {"amenity": "place_of_worship", "name": "Muslim Prayer Room", "religion": "muslim", "source": "www.isoc.susu.org"}}, {"type": "node", "id": 4077406570, "lat": 50.9112572, "lon": -1.3872852, "tags": {"addr:city": "Southampton", "addr:street": "Princes Court", "amenity": "place_of_worship", "name": "Taqwah Mosque", "phone": "+44 2380 986498", "religion": "muslim"}}, {"type": "node", "id": 11843466146, "lat": 50.9094043, "lon": -1.3991837, "tags": {"amenity": "place_of_worship", "name": "Razvia Masjid", "religion": "muslim"}}, {"type": "way", "id": 98281103, "center": {"lat": 50.9093886, "lon": -1.3996202}, "tags": {"addr:city": "Southampton", "addr:postcode": "SO14 0BH", "amenity": "place_of_worship", "building": "yes", "name": "Medina Mosque", "ref:GB:uprn": "10034862311", "religion": "muslim", "source": "Bing"}}, {"type": "way", "id": 120515027, "center": {"lat": 50.7218195, "lon": -1.8800898}, "tags": {"amenity": "place_of_worship", "building": "yes", "check_date": "2024-07-25", "name": "Bournemouth Islamic Centre & Central Mosque", "religion": "muslim", "source": "Bing"}}, {"type": "way", "id": 166815754, "center": {"lat": 50.9230772, "lon": -1.3948892}, "tags": {"amenity": "place_of_worship", "building": "yes", "name": "Bashir Ahmed Masjid", "religion": "muslim"}}, {"type": "way", "id": 187727191, "center": {"lat": 50.9099171, "lon": -1.3974368}, "tags": {"addr:city": "Southampton", "addr:postcode": "SO14 0BQ", "amenity": "place_of_worship", "building": "yes", "name": "The Abu Bakr Jamia Masjid", "ref:GB:uprn": "100062500908;10024441394", "religion": "muslim"}}, {"type": "way", "id": 190114300, "center": {"lat": 50.9124364, "lon": -1.3923797}, "tags": {"addr:city": "Southampton", "addr:housenumber": "189", "addr:postcode": "SO14 0EL", "addr:street": "Northumberland Road", "amenity": "place_of_worship", "building": "yes", "denomination": "sunni", "name": "Masjid Ar-Rahmah", "religion": "muslim", "website": "https://masjidrahmah.co.uk/"}}, {"type": "way", "id": 190840560, "center": {"lat": 51.263496, "lon": -1.0923061}, "tags": {"addr:city": "Basingstoke", "addr:housenumber": "35-37", "addr:postcode": "RG21 8SS", "addr:street": "Sarum Hill", "amenity": "place_of_worship", "building": "yes", "name": "Basingstoke Mosque", "religion": "muslim", "website": "http://www.basingstokemosque.org.uk/"}}, {"type": "way", "id": 227651356, "center": {"lat": 51.0693816, "lon": -1.3147683}, "tags": {"addr:city": "Winchester", "addr:country": "GB", "addr:housenumber": "55", "addr:place": "Hyde", "addr:postcode": "SO23 7DY", "addr:street": "Hyde Street", "amenity": "place_of_worship", "building": "yes", "denomination": "sunni", "name": "Winchester Islamic Centre", "religion": "muslim", "website": "https://www.winchestermuslims.org.uk/", "wikidata": "Q26633876"}}, {"type": "way", "id": 248635628, "center": {"lat": 50.7424819, "lon": -1.8770498}, "tags": {"amenity": "place_of_worship", "building": "mosque", "name": "Bournemouth Jamei Mosque", "religion": "muslim"}}, {"type": "way", "id": 430150560, "center": {"lat": 50.7856786, "lon": -1.084249}, "tags": {"addr:city": "Southsea", "addr:housename": "Portsmouth Hafiziah Madrasah", "addr:housenumber": "73,75", "addr:postcode": "PO5 2AX", "addr:street": "Marmion Road", "amenity": "place_of_worship", "building": "school", "description": "The Quran Memorizing School of Portsmouth", "name": "Portsmouth Hafiziah Madrasah", "ref:GB:uprn": "1775053748;1775122956", "religion": "muslim"}}, {"type": "way", "id": 521651644, "center": {"lat": 50.7279031, "lon": -1.9266412}, "tags": {"addr:city": "Poole", "addr:housenumber": "59-61", "addr:postcode": "BH14 9BT", "addr:street": "Ashley Road", "amenity": "place_of_worship", "building": "yes", "denomination": "sunni", "name": "Poole Mosque", "phone": "+44 1202 746 686", "religion": "muslim", "website": "https://poolemosque.co.uk/"}}, {"type": "way", "id": 550279765, "center": {"lat": 50.8068076, "lon": -1.0873212}, "tags": {"addr:city": "Portsmouth", "addr:housename": "Mile End Chapel", "addr:housenumber": "389a", "addr:postcode": "PO1 4QL", "addr:street": "Old Commercial Road", "amenity": "place_of_worship", "building": "yes", "name": "Portsmouth Muslim Academy", "ref:GB:uprn": "1775061100", "religion": "muslim", "website": "https://www.portsmouth-muslim-academy.org"}}, {"type": "way", "id": 654524908, "center": {"lat": 50.8763316, "lon": -1.2177505}, "tags": {"addr:city": "Fareham", "addr:postcode": "PO15 6QR", "addr:street": "Fontley Road", "amenity": "place_of_worship", "building": "yes", "name": "Al Mahdi Centre", "ref:GB:uprn": "10094864065", "religion": "muslim", "website": "https://www.almahdi.org.uk/"}}, {"type": "way", "id": 684945145, "center": {"lat": 51.0725015, "lon": -1.8063692}, "tags": {"addr:city": "Salisbury", "addr:housenumber": "27", "addr:postcode": "SP2 7ED", "addr:street": "Wilton Road", "amenity": "place_of_worship", "building": "yes", "denomination": "sunni", "name": "Salisbury Central Masjid", "phone": "+44 1722 341 989", "religion": "muslim", "website": "https://salisburymuslims.org.uk/"}}, {"type": "way", "id": 1483015740, "center": {"lat": 50.7979272, "lon": -1.0773535}, "tags": {"addr:city": "Portsmouth", "addr:housenumber": "300", "addr:postcode": "PO1 1PL", "addr:street": "Somers Road North", "amenity": "place_of_worship", "building": "church", "denomination": "sunni", "name": "Portsmouth Central Masjid", "phone": "+44 2392 865 030", "religion": "muslim", "website": "http://portsmouthcentralmasjid.com/"}}, {"type": "way", "id": 1483060402, "center": {"lat": 50.7941406, "lon": -1.0798644}, "tags": {"addr:city": "Portsmouth", "addr:housenumber": "111", "addr:postcode": "PO5 1PS", "addr:street": "Victoria Road North", "amenity": "place_of_worship", "building": "yes", "denomination": "sunni", "name": "Portsmouth Jami Mosque", "phone": "+44 2392 832541", "religion": "muslim", "website": "https://portsmouthjamimosque.org/"}}, {"type": "node", "id": 630801815, "lat": 51.4618237, "lon": -2.5074679, "tags": {"addr:city": "Bristol", "addr:postcode": "BS15 8LR", "addr:street": "Moravian Road", "amenity": "place_of_worship", "name": "Kingswood Masjid", "religion": "muslim"}}, {"type": "node", "id": 710176513, "lat": 51.3800009, "lon": -2.3573317, "tags": {"addr:housenumber": "8", "addr:postcode": "BA1 1LA", "addr:street": "Pierrepont Street", "amenity": "place_of_worship", "check_date": "2024-03-30", "name": "Bath Islamic Centre and Mosque", "religion": "muslim", "website": "https://bathmosque.org.uk/", "wheelchair": "limited"}}, {"type": "node", "id": 8911865389, "lat": 51.5846466, "lon": -2.9781088, "tags": {"addr:city": "Newport", "addr:housenumber": "276", "addr:postcode": "NP19 0DZ", "addr:street": "Corporation Road", "amenity": "place_of_worship", "contact:facebook": "https://www.facebook.com/IqraNewport/", "email": "iqranewport@gmail.com", "name": "IQRA Community Centre", "name:cy": "Canolfan Gymunedol IQRA", "phone": "+44 7946 629 672", "religion": "muslim"}}, {"type": "node", "id": 9173321868, "lat": 51.5910757, "lon": -2.9901221, "tags": {"addr:city": "Newport", "addr:housenumber": "48", "addr:postcode": "NP19 0AG", "addr:street": "Clarence Place", "amenity": "place_of_worship", "denomination": "shia", "name": "Alevi Cultural Centre", "religion": "muslim", "website": "http://www.alevinet.org/SAP.aspx?pid=About_en-GB"}}, {"type": "node", "id": 9249523091, "lat": 51.5848926, "lon": -2.9969069, "tags": {"addr:city": "Newport", "addr:housenumber": "63", "addr:postcode": "NP20 4DX", "addr:street": "Stow Hill", "amenity": "place_of_worship", "name": "Newport Central Jam'e Masjid", "phone": "+44 7528 229 928", "religion": "muslim", "website": "https://ncjm.co.uk/"}}, {"type": "node", "id": 9742207092, "lat": 51.5824435, "lon": -2.9919157, "tags": {"addr:city": "Newport", "addr:housenumber": "183-186", "addr:postcode": "NP20 2PP", "addr:street": "Commercial Road", "amenity": "place_of_worship", "denomination": "sufi", "name": "Jamia Masjid", "phone": "+44 1633 662 096", "religion": "muslim"}}, {"type": "node", "id": 11583907945, "lat": 51.5900485, "lon": -2.9874602, "tags": {"addr:city": "Newport", "addr:housenumber": "12", "addr:postcode": "NP19 0BA", "addr:street": "Cedar Road", "amenity": "place_of_worship", "denomination": "muslim", "name": "East Newport Islamic Cultural Centre", "religion": "muslim"}}, {"type": "node", "id": 12227799229, "lat": 51.5728166, "lon": -2.9904623, "tags": {"addr:city": "Newport", "addr:housenumber": "48", "addr:postcode": "NP20 2JE", "addr:street": "Alexandra Road", "amenity": "place_of_worship", "email": "info@newportdiyanet.org", "name": "Newport Diyanet Education Community Centre", "religion": "muslim", "website": "https://newportdiyanet.org/"}}, {"type": "node", "id": 12457438935, "lat": 51.5908257, "lon": -2.9833863, "tags": {"addr:city": "Newport", "addr:housenumber": "51-52", "addr:postcode": "NP19 8DT", "addr:street": "Hereford Street", "amenity": "place_of_worship", "denomination": "muslim", "name": "Dawat-e-Islami Faizan-e-Madina", "phone": "+44 1633 243 413", "religion": "muslim"}}, {"type": "node", "id": 12609664004, "lat": 51.5896762, "lon": -2.9798072, "tags": {"addr:city": "Newport", "addr:postcode": "NP19 8EZ", "addr:street": "Probert Place", "amenity": "place_of_worship", "name": "Jaima Ala Abba Community Center", "religion": "muslim"}}, {"type": "way", "id": 27629313, "center": {"lat": 51.4794344, "lon": -3.2136859}, "tags": {"addr:city": "Cardiff", "addr:housename": "Ahmadiyya Muslim Community Cardiff", "addr:postcode": "CF11 8DG", "addr:street": "Sanatorium Road", "alt_name": "Ahmadiyya Mission Cardiff;Bait-ur-Raheem", "amenity": "place_of_worship", "building": "mosque", "denomination": "ahmadiyya", "name": "Baitur Raheem Mosque", "name:cy": "Mosg Beitur Rah\u00eem", "name:ur": "\u0645\u0633\u062c\u062f \u0628\u06cc\u062a \u0627\u0644\u0631\u062d\u06cc\u0645", "ref:GB:uprn": "200002932396", "religion": "muslim", "source": "Bing;survey", "wikidata": "Q136943228", "wikipedia": "en:Baitur Raheem Mosque"}}, {"type": "way", "id": 90330500, "center": {"lat": 51.4655056, "lon": -3.1670777}, "tags": {"addr:housename": "St Stephens Church", "addr:housenumber": "85", "addr:street": "Mount Stuart Square", "amenity": "place_of_worship", "building": "yes", "name": "Imam Ali Centre", "religion": "muslim"}}, {"type": "way", "id": 95479853, "center": {"lat": 51.4672082, "lon": -2.5645486}, "tags": {"addr:city": "Bristol", "addr:suburb": "Easton", "amenity": "place_of_worship", "building": "mosque", "name": "Easton Jamia Masjid", "phone": "+44 117 951 0317", "postal_code": "BS5 6JH", "religion": "muslim"}}, {"type": "way", "id": 95850902, "center": {"lat": 51.4837002, "lon": -3.2002817}, "tags": {"amenity": "place_of_worship", "building": "yes", "name": "Bilal Mosque", "religion": "muslim", "source": "Bing;survey"}}, {"type": "way", "id": 103388005, "center": {"lat": 51.4728076, "lon": -3.173287}, "tags": {"amenity": "place_of_worship", "building": "yes", "name": "Noor El Islam Mosque", "ref:GB:uprn": "200002932047", "religion": "muslim"}}, {"type": "way", "id": 126129757, "center": {"lat": 51.4421603, "lon": -2.5815615}, "tags": {"addr:city": "Bristol", "addr:street": "Green Street", "amenity": "place_of_worship", "building": "mosque", "building:levels": "1", "name": "Bristol Jamia Mosque", "ref:GB:uprn": "119614", "religion": "muslim", "wikidata": "Q4968939", "wikipedia": "en:Bristol Jamia Mosque"}}, {"type": "way", "id": 128681429, "center": {"lat": 51.3160004, "lon": -2.2026841}, "tags": {"amenity": "place_of_worship", "building": "yes", "name": "Trowbridge Mosque", "religion": "muslim", "source": "OS_OpenData_StreetView"}}, {"type": "way", "id": 131447031, "center": {"lat": 51.1269689, "lon": -3.0036163}, "tags": {"addr:city": "Bridgwater", "addr:country": "GB", "addr:county": "Somerset", "addr:housenumber": "10", "addr:postcode": "TA6 3LH", "addr:street": "Friarn Street", "amenity": "place_of_worship", "building": "yes", "name": "Bridgwater Islamic Centre", "religion": "muslim", "service_times": "Fr 08:00-18:00"}}, {"type": "way", "id": 157538264, "center": {"lat": 51.4619791, "lon": -2.5627135}, "tags": {"addr:city": "Bristol", "addr:postcode": "BS5 6AP", "addr:suburb": "Easton", "amenity": "place_of_worship", "building": "yes", "name": "Bristol Central Mosque", "ref:GB:uprn": "299298", "religion": "muslim"}}, {"type": "way", "id": 186136733, "center": {"lat": 51.4707216, "lon": -2.56402}, "tags": {"amenity": "place_of_worship", "building": "yes", "name": "Shah Jalal Jame Masjid", "religion": "muslim"}}, {"type": "way", "id": 346991201, "center": {"lat": 51.4729131, "lon": -2.5583833}, "tags": {"addr:city": "Bristol", "addr:housenumber": "145-149", "addr:postcode": "BS5 6PR", "addr:street": "Fishponds Road", "amenity": "place_of_worship", "building": "yes", "name": "Jalalabad Islamic Centre", "religion": "muslim"}}, {"type": "way", "id": 394676530, "center": {"lat": 51.4678463, "lon": -2.5577706}, "tags": {"addr:city": "Bristol", "addr:suburb": "Easton", "amenity": "place_of_worship", "building": "mosque", "denomination": "sunni", "name": "Greenbank Masjid", "ref:GB:uprn": "300210", "religion": "muslim", "wikidata": "Q135246232"}}, {"type": "way", "id": 405371866, "center": {"lat": 51.4534319, "lon": -2.5628763}, "tags": {"addr:city": "Bristol", "addr:postcode": "BS5 9TG", "amenity": "place_of_worship", "building": "yes", "name": "Tawfiq Masjid & Centre", "ref:GB:uprn": "302243", "religion": "muslim"}}, {"type": "way", "id": 562334690, "center": {"lat": 51.4666522, "lon": -2.5787677}, "tags": {"addr:city": "Bristol", "addr:postcode": "BS2 9QA", "addr:street": "Lower Ashley Road", "amenity": "place_of_worship", "building": "yes", "name:en": "Masjid Ibn Seereen", "ref:GB:uprn": "72941", "religion": "muslim"}}, {"type": "way", "id": 562901663, "center": {"lat": 51.4591566, "lon": -2.5798583}, "tags": {"addr:city": "Bristol", "addr:housenumber": "20", "addr:postcode": "BS2 9DR", "addr:street": "Wade Street", "addr:suburb": "St Paul's", "amenity": "place_of_worship", "building": "yes", "building:levels": "2", "name": "Al-Baseera Bristol Centre", "office": "religion", "ref:GB:uprn": "94344", "religion": "muslim"}}, {"type": "way", "id": 618081392, "center": {"lat": 51.4690152, "lon": -2.5776299}, "tags": {"addr:city": "Bristol", "addr:housenumber": "41", "addr:postcode": "BS2 9QX", "addr:street": "Sevier Street", "amenity": "place_of_worship", "building": "mosque", "denomination": "sunni", "name": "Hazrat Bilal Centre", "ref:GB:uprn": "67088", "religion": "muslim"}}, {"type": "way", "id": 631336714, "center": {"lat": 51.4768764, "lon": -2.538337}, "tags": {"addr:city": "Bristol", "addr:housenumber": "577-579", "addr:street": "Fishponds Road", "amenity": "place_of_worship", "building": "mosque", "name": "Faizan-E-Madinah", "postal_code": "BS16 3AF", "religion": "muslim"}}, {"type": "way", "id": 648513199, "center": {"lat": 51.4951505, "lon": -2.5742769}, "tags": {"addr:city": "Bristol", "addr:country": "GB", "addr:postcode": "BS7 0BE", "addr:street": "Filton Avenue", "addr:suburb": "Horfield", "amenity": "place_of_worship", "building": "retail", "name": "Shahporan", "ref:GB:uprn": "17797;264781", "religion": "muslim"}}, {"type": "way", "id": 680063046, "center": {"lat": 51.4895769, "lon": -3.1753031}, "tags": {"addr:city": "Cardiff", "addr:housenumber": "21,23", "addr:postcode": "CF24 4BG", "addr:street": "Wyeverne Road", "amenity": "place_of_worship", "building": "yes", "description": "Muslim Educational & Welfare Center", "email": "info@darulisra.org.uk", "name": "Dar Ul-Isra", "phone": "+44 29 2034 4073", "ref:GB:uprn": "10008903788", "religion": "muslim", "start_date": "1989", "website": "https://www.darulisra.org.uk"}}, {"type": "way", "id": 680071144, "center": {"lat": 51.4702878, "lon": -3.1854426}, "tags": {"addr:city": "Cardiff", "addr:street": "Penarth Road", "amenity": "place_of_worship", "building": "yes", "building:levels": "2", "name": "Masjid At-Tawheed", "ref:GB:uprn": "10092988253;10008902562", "religion": "muslim"}}, {"type": "way", "id": 680071170, "center": {"lat": 51.4684199, "lon": -3.1818464}, "tags": {"amenity": "place_of_worship", "building": "yes", "name": "Masjid Abubakr", "ref:GB:uprn": "100101041674", "religion": "muslim"}}, {"type": "way", "id": 683360045, "center": {"lat": 51.4959693, "lon": -3.1757295}, "tags": {"amenity": "place_of_worship", "building": "yes", "building:levels": "2", "name": "Madina Mosque", "ref:GB:uprn": "10093729333", "religion": "muslim"}}, {"type": "way", "id": 693532250, "center": {"lat": 51.4931244, "lon": -3.173653}, "tags": {"amenity": "place_of_worship", "building": "yes", "check_date": "2024-06-09", "name": "Shah Jalal Mosque", "ref:GB:uprn": "10008903803", "religion": "muslim", "wikidata": "Q29496271"}}, {"type": "way", "id": 697751756, "center": {"lat": 51.4732902, "lon": -2.5308963}, "tags": {"addr:city": "Bristol", "addr:country": "GB", "addr:housenumber": "26", "addr:postcode": "BS16 3NY", "addr:street": "Abingdon Road", "addr:suburb": "Fishponds", "amenity": "place_of_worship", "building": "church", "building:levels": "2", "name": "Qur'an Academy", "old_name": "Abingdon Road Church", "religion": "muslim", "roof:levels": "1", "roof:shape": "hipped"}}, {"type": "way", "id": 729248301, "center": {"lat": 51.5941684, "lon": -2.9961529}, "tags": {"addr:city": "Newport", "addr:postcode": "NP20 5FA", "addr:street": "Shaftesbury Street", "amenity": "place_of_worship", "building": "yes", "denomination": "sunni", "name": "Dawat E Islami Shaftesbury", "ref:GB:uprn": "10090274812", "religion": "muslim", "wikidata": "Q99451416"}}, {"type": "way", "id": 849597626, "center": {"lat": 51.5811335, "lon": -2.9917305}, "tags": {"addr:city": "Newport", "addr:housenumber": "183-186", "addr:postcode": "NP20 2PP", "addr:street": "Commercial Road", "amenity": "place_of_worship", "building": "mosque", "denomination": "sunni", "email": "info@jamiamosquenewport.org", "name": "Jamia Mosque", "phone": "+44 1633 662 096", "ref:GB:uprn": "200001806378", "religion": "muslim", "website": "http://www.jamiamosquenewport.org"}}, {"type": "way", "id": 961226933, "center": {"lat": 51.495845, "lon": -3.1717432}, "tags": {"amenity": "place_of_worship", "building": "yes", "name": "Madni Mosque", "religion": "muslim"}}, {"type": "way", "id": 966563585, "center": {"lat": 51.0147227, "lon": -3.1070971}, "tags": {"addr:city": "Taunton", "addr:housename": "Ivor House", "addr:postcode": "TA1 4AR", "addr:street": "Tower Lane", "alt_name": "Taunton Mosque", "amenity": "place_of_worship", "building": "yes", "denomination": "sunni", "fixme": "note", "name": "Taunton and Somerset Islamic Centre", "note": "Some web evidence suggests moved to the YMCA. See survey_date. Not on charity register under either of these names.", "ref:GB:uprn": "10012904574;10014264685;100041071209", "religion": "muslim", "survey:date": "2018-01"}}, {"type": "way", "id": 973284373, "center": {"lat": 51.4747818, "lon": -3.1868853}, "tags": {"amenity": "place_of_worship", "building": "yes", "name": "Rabbaniah Islamic Cultural Centre", "religion": "muslim"}}, {"type": "way", "id": 1377746709, "center": {"lat": 51.4880585, "lon": -3.1547532}, "tags": {"amenity": "place_of_worship", "building": "yes", "name": "Al-Ikhlas Centre", "religion": "muslim"}}, {"type": "way", "id": 175319483, "center": {"lat": 50.7292049, "lon": -3.5250632}, "tags": {"amenity": "place_of_worship", "building": "yes", "check_date": "2025-04-26", "name": "Exeter Mosque", "religion": "muslim", "wikidata": "Q65066212"}}, {"type": "way", "id": 919104649, "center": {"lat": 50.3770354, "lon": -4.1411803}, "tags": {"addr:city": "Plymouth", "addr:housenumber": "112", "addr:postcode": "PL4 6AW", "addr:street": "North Road East", "amenity": "place_of_worship", "building": "house", "building:levels": "2", "denomination": "sunni", "name": "Islamic Centre of Plymouth and Cornwall", "religion": "muslim", "roof:levels": "1", "roof:material": "roof_tiles", "roof:orientation": "across", "roof:shape": "gabled", "website": "https://icpc.org.uk/"}}, {"type": "node", "id": 9935248471, "lat": 52.2858415, "lon": -1.5292415, "tags": {"amenity": "place_of_worship", "building": "mosque", "name": "Masjid Albirr", "religion": "muslim", "wheelchair": "yes"}}, {"type": "way", "id": 205770893, "center": {"lat": 52.0633073, "lon": -1.3461983}, "tags": {"addr:city": "Banbury", "addr:postcode": "OX16 0BP", "addr:street": "Boxhedge Road", "amenity": "place_of_worship", "building": "church", "name": "Banbury Makkah Masjid (Spiritual Centre)", "religion": "muslim", "source": "website", "source:geometry": "Bing"}}, {"type": "way", "id": 257604434, "center": {"lat": 52.1935014, "lon": -2.2106967}, "tags": {"addr:city": "Worcester", "addr:postcode": "WR5 1JU", "amenity": "place_of_worship", "building": "mosque", "name": "Jamia Masjid Ghousia", "ref:GB:uprn": "100121275426", "religion": "muslim", "source:name": "www.muslimsinbritain.org"}}, {"type": "way", "id": 266155111, "center": {"lat": 52.1964375, "lon": -2.2107648}, "tags": {"addr:city": "Worcester", "addr:postcode": "WR4 9PS", "amenity": "place_of_worship", "building": "yes", "name": "Al-Madina Jami Masjid", "ref:GB:uprn": "10000853674", "religion": "muslim", "source": "bing", "source:name": "www.muslimsinbritain.org"}}, {"type": "way", "id": 427635460, "center": {"lat": 52.061785, "lon": -1.3250553}, "tags": {"addr:city": "Banbury", "addr:postcode": "OX16 4RP", "addr:street": "Merton Street", "amenity": "place_of_worship", "building": "mosque", "name": "Banbury Madni Masjid", "religion": "muslim", "source": "http://mosques.muslimsinbritain.org/show-mosque.php?id=34", "wikidata": "Q4854013", "wikipedia": "en:Banbury Mosque"}}, {"type": "way", "id": 1100746729, "center": {"lat": 52.2885878, "lon": -1.5412522}, "tags": {"addr:city": "Leamington Spa", "addr:housename": "Ahmadiyya Muslim Association", "addr:housenumber": "AMA UK", "addr:postcode": "CV32 5AH", "addr:street": "Riverside", "alt_name:ur": "\u0628\u06cc\u062a \u0627\u0644\u0627\u062d\u0633\u0627\u0646", "amenity": "place_of_worship", "building": "yes", "denomination": "ahmadiyya", "name": "Baitul Ehsan Mosque", "name:ur": "\u0645\u0633\u062c\u062f \u0628\u06cc\u062a \u0627\u0644\u0627\u062d\u0633\u0627\u0646", "religion": "muslim"}}, {"type": "way", "id": 1350701215, "center": {"lat": 52.1972923, "lon": -2.2191995}, "tags": {"addr:city": "Worcester", "addr:postcode": "WR1 1NQ", "amenity": "place_of_worship", "building": "yes", "name": "Turkish Community Centre", "religion": "muslim", "source:name": "www.muslimsinbritain.org"}}, {"type": "way", "id": 1350706539, "center": {"lat": 52.1913183, "lon": -2.2127482}, "tags": {"addr:city": "Worcester", "addr:postcode": "WR5 1BW", "amenity": "place_of_worship", "building": "yes", "name": "Jalalabad Muslim Association", "religion": "muslim", "source:name": "www.muslimsinbritain.org"}}, {"type": "way", "id": 58724482, "center": {"lat": 52.899026, "lon": -1.4859374}, "tags": {"addr:city": "Derby", "addr:postcode": "DE23 8DE", "addr:street": "Village Street", "amenity": "place_of_worship", "building": "yes", "name": "Derby Jamia Mosque", "old_name": "Greyhound", "religion": "muslim", "source": "OS_OpenData_StreetView;survey"}}, {"type": "way", "id": 153379176, "center": {"lat": 52.7780966, "lon": -1.2056767}, "tags": {"addr:housenumber": "80A", "addr:postcode": "LE11 1LL", "addr:street": "Rendell Street", "amenity": "place_of_worship", "building": "yes", "name": "Shah jalal Mosque & Centre", "religion": "muslim"}}, {"type": "way", "id": 566466541, "center": {"lat": 52.6774585, "lon": -1.2724728}, "tags": {"addr:city": "Coalville", "addr:housename": "The Markfield Mosque", "addr:postcode": "LE67 9SY", "addr:street": "Ratby Lane", "addr:village": "Markfield", "amenity": "place_of_worship", "building": "yes", "building:levels": "1", "denomination": "sunni", "female": "yes", "male": "yes", "name": "The Markfield Mosque", "religion": "muslim", "service_times": "all", "subdenomination": "maudoodi", "website": "https://www.islamic-foundation.org.uk"}}, {"type": "way", "id": 588299787, "center": {"lat": 52.7969746, "lon": -1.6436496}, "tags": {"addr:city": "Burton-on-Trent", "addr:postcode": "DE14 3LA", "addr:street": "Uxbridge Street", "amenity": "place_of_worship", "building": "yes", "name": "Central Jamia Masjid Rizvia", "religion": "muslim"}}, {"type": "way", "id": 1292541556, "center": {"lat": 52.8060948, "lon": -1.6069776}, "tags": {"addr:city": "Burton-on-Trent", "addr:housename": "Ahmadiyya Muslim Community", "addr:housenumber": "130", "addr:postcode": "DE15 0HU", "addr:street": "High Bank Road", "alt_name": "Baitul Saboor;Baitus Saboor;Bait-us-Saboor;Bait-ul-Saboor", "alt_name:ur": "\u0628\u06cc\u062a \u0627\u0644\u0635\u0628\u0648\u0631", "amenity": "place_of_worship", "building": "yes", "denomination": "ahmadiyya", "name": "Baitul Saboor Mosque", "name:ur": "\u0645\u0633\u062c\u062f \u0628\u06cc\u062a \u0627\u0644\u0635\u0628\u0648\u0631", "ref:GB:uprn": "100032004251", "religion": "muslim", "source:name": "OS Open Local Important Buildings Layer"}}, {"type": "node", "id": 403630765, "lat": 52.0652423, "lon": -0.7892129, "tags": {"addr:city": "Milton Keynes", "addr:country": "GB", "addr:housenumber": "19", "addr:postcode": "MK13 0EE", "addr:street": "North Street", "addr:suburb": "New Bradwell", "amenity": "place_of_worship", "check_date": "2024-03-13", "name": "Al Karam Trust Mosque", "religion": "muslim"}}, {"type": "node", "id": 552455084, "lat": 52.3251021, "lon": -0.0686199, "tags": {"amenity": "place_of_worship", "name": "Jamia Masjid St Ives Mosque", "religion": "muslim"}}, {"type": "node", "id": 1023231669, "lat": 52.1322479, "lon": -0.4850555, "tags": {"addr:city": "Bedford", "addr:country": "GB", "addr:housenumber": "1-7", "addr:postcode": "MK40 4LB", "addr:street": "Westbourne Road", "amenity": "place_of_worship", "name": "Jamia Masjid Gulshani Baghdad", "religion": "muslim"}}, {"type": "node", "id": 1121007004, "lat": 52.2582958, "lon": -0.8493383, "tags": {"addr:city": "Northampton", "addr:country": "GB", "addr:housenumber": "1", "addr:postcode": "NN3 2TS", "addr:street": "Collingdale Road", "amenity": "place_of_worship", "denomination": "sunni", "name": "Gulzare Medina Masjid Islamic Welfare Trust", "religion": "muslim"}}, {"type": "node", "id": 4594020544, "lat": 52.3885249, "lon": -0.7274642, "tags": {"addr:city": "Kettering", "addr:country": "GB", "addr:housenumber": "123", "addr:postcode": "NN15 6AD", "addr:street": "Headlands", "amenity": "place_of_worship", "denomination": "sunni", "name": "Kettering Muslim Association", "note": "KMA is the name on the building, but they call it Masjid Al-Arqam on the website. Check local usage.", "operator": "Kettering Muslim Association", "ref:GB:charity_no": "1108873", "religion": "muslim", "website": "https://www.ketteringmosque.co.uk", "wheelchair": "no"}}, {"type": "node", "id": 4929529636, "lat": 52.2475787, "lon": -0.8770168, "tags": {"addr:city": "Northampton", "addr:country": "GB", "addr:housenumber": "112-116", "addr:postcode": "NN1 4PD", "addr:street": "Abington Avenue", "amenity": "place_of_worship", "name": "Northampton Central Mosque", "religion": "muslim", "website": "http://www.ncmosque.co.uk/"}}, {"type": "node", "id": 5238118522, "lat": 52.0743805, "lon": -0.6270766, "tags": {"addr:city": "Cranfield", "addr:street": "Wharley End", "addr:suburb": "Cranfield University", "amenity": "place_of_worship", "name": "Cranfield University Mosque", "religion": "muslim"}}, {"type": "node", "id": 6299924662, "lat": 52.1238424, "lon": -0.4656208, "tags": {"addr:city": "Bedford", "addr:country": "GB", "addr:housenumber": "5", "addr:postcode": "MK42 9NU", "addr:street": "Elstow Road", "amenity": "place_of_worship", "name": "South Bedford Islamic Centre", "religion": "muslim"}}, {"type": "node", "id": 9906093926, "lat": 52.1363181, "lon": -0.4734689, "tags": {"addr:city": "Bedford", "addr:country": "GB", "addr:housenumber": "43", "addr:street": "Brereton Road", "amenity": "place_of_worship", "name": "Bedford Al Falaah Islamic Centre", "religion": "muslim"}}, {"type": "node", "id": 9906093927, "lat": 52.1341993, "lon": -0.4736781, "tags": {"addr:city": "Bedford", "addr:country": "GB", "addr:housenumber": "65", "addr:postcode": "MK40 1QS", "addr:street": "Commercial Road", "amenity": "place_of_worship", "fax": "+44 1234 219427", "name": "Bangladesh Islamic Mission & Jamee Mosjid", "phone": "+44 1234 219427", "religion": "muslim"}}, {"type": "node", "id": 13244588155, "lat": 52.2444955, "lon": -0.8942773, "tags": {"addr:city": "Northampton", "addr:housename": "2", "addr:housenumber": "2", "addr:postcode": "NN1 3RN", "addr:street": "Lorne Road", "amenity": "place_of_worship", "denomination": "shia", "name": "Imambargah Dua-e-Zahra AGHA UK", "religion": "muslim", "service_times": "6:30 PM Thursday"}}, {"type": "way", "id": 41880379, "center": {"lat": 52.0114567, "lon": -0.7430387}, "tags": {"addr:city": "Milton Keynes", "addr:country": "GB", "addr:postcode": "MK1 1NW", "addr:street": "Peverel Drive", "addr:suburb": "Bletchley", "amenity": "place_of_worship", "building": "yes", "denomination": "shia", "description": "Shia", "name": "Zainabiya Islamic Centre", "religion": "muslim", "website": "https://ksimiltonkeynes.org/"}}, {"type": "way", "id": 88046838, "center": {"lat": 52.1326128, "lon": -0.483291}, "tags": {"amenity": "place_of_worship", "building": "yes", "name": "Jamia Masjid Hanfia Ghousia", "religion": "muslim"}}, {"type": "way", "id": 138128170, "center": {"lat": 52.2433843, "lon": -0.8989018}, "tags": {"addr:city": "Northampton", "addr:country": "GB", "addr:housenumber": "8", "addr:postcode": "NN1 2TR", "addr:street": "Saint George's Street", "amenity": "place_of_worship", "building": "yes", "name": "AL-Jamat-Ul-Muslimin of Bangladesh", "religion": "muslim", "source": "Bing"}}, {"type": "way", "id": 152545853, "center": {"lat": 52.1369895, "lon": -0.4745038}, "tags": {"addr:city": "Bedford", "addr:housenumber": "34", "addr:postcode": "MK40 1HU", "addr:street": "Brereton Road", "amenity": "place_of_worship", "building": "yes", "name": "Bedford Central Jamee Masjid", "religion": "muslim"}}, {"type": "way", "id": 199746713, "center": {"lat": 52.4877932, "lon": -0.6976383}, "tags": {"addr:city": "Corby", "addr:housenumber": "33", "addr:postcode": "NN17 1RL", "addr:street": "Stuart Road", "amenity": "place_of_worship", "building": "church", "denomination": "sunni", "name": "Corby Central Masjid", "religion": "muslim"}}, {"type": "way", "id": 380282106, "center": {"lat": 52.3028327, "lon": -0.6873422}, "tags": {"addr:city": "Wellingborough", "addr:housenumber": "35", "addr:postcode": "NN8 1JF", "addr:street": "Winstanley Road", "amenity": "place_of_worship", "name": "Shahjalal Jame Mosque", "religion": "muslim", "source": "OS_OpenData_StreetView"}}, {"type": "way", "id": 402949925, "center": {"lat": 52.3028771, "lon": -0.6868359}, "tags": {"addr:city": "Wellingborough", "addr:country": "GB", "addr:housenumber": "37", "addr:postcode": "NN8 1JD", "addr:street": "Winstanley Road", "amenity": "place_of_worship", "building": "mosque", "email": "islahulmuslimeen@hotmail.co.uk", "name": "Islah-Ul-Muslimeen", "note": "The mosque & community centre", "religion": "muslim", "website": "https://www.wellingboroughmosque.co.uk/"}}, {"type": "way", "id": 925372524, "center": {"lat": 52.1400568, "lon": -0.4525985}, "tags": {"addr:city": "Bedford", "addr:postcode": "MK40 3EP", "addr:street": "Goldington Road", "amenity": "place_of_worship", "building": "yes", "name": "Goldington Islamic Centre", "ref:GB:uprn": "10033189655", "religion": "muslim", "website": "https://goldingtonislamiccentre.org/"}}, {"type": "way", "id": 1241372343, "center": {"lat": 52.1249213, "lon": -0.4713739}, "tags": {"addr:city": "Bedford", "addr:housenumber": "74", "addr:postcode": "MK42 9HP", "addr:street": "Ampthill Road", "amenity": "place_of_worship", "building": "church", "contact:email": "info@daarulhuda.org", "contact:phone": "+44 1234 311856", "name": "Daarul Huda", "religion": "muslim", "website": "https://daarulhuda.org/"}}, {"type": "way", "id": 1249660806, "center": {"lat": 52.2410178, "lon": -0.9179048}, "tags": {"addr:housenumber": "41-43", "addr:postcode": "NN5 5LJ", "addr:street": "Argyle Street", "amenity": "place_of_worship", "building": "mosque", "name": "Baital Ma'mur Jami Masjid", "ref:GB:uprn": "15061960", "religion": "muslim"}}, {"type": "way", "id": 1394014589, "center": {"lat": 52.1303149, "lon": -0.4673969}, "tags": {"addr:city": "Bedford", "addr:housenumber": "5", "addr:postcode": "MK42 9AX", "addr:street": "Melbourne Street", "amenity": "place_of_worship", "building": "yes", "contact:email": "haramaineducationcentre@gmail.com", "contact:phone": "+44 7877 720156", "name": "Al-Haramain Mosque and Education Centre", "religion": "muslim"}}, {"type": "node", "id": 185426385, "lat": 52.6535652, "lon": -1.0967755, "tags": {"addr:housenumber": "39", "addr:postcode": "LE4 9EE", "addr:street": "Edgehill Road", "amenity": "place_of_worship", "denomination": "sunni", "name": "Masjid Al Ansar", "name:ar": "\u0645\u0633\u062c\u062f \u0627\u0644\u0623\u0646\u0635\u0627\u0631", "religion": "muslim"}}, {"type": "node", "id": 190396731, "lat": 52.6402022, "lon": -1.0683882, "tags": {"addr:city": "Leicester", "addr:country": "GB", "addr:housenumber": "1", "addr:postcode": "LE5 2EP", "addr:street": "Gervas Road", "addr:suburb": "Humberstone", "amenity": "place_of_worship", "denomination": "sunni", "name": "Darul Ihsaan", "religion": "muslim"}}, {"type": "node", "id": 424533523, "lat": 52.9656038, "lon": -1.1680699, "tags": {"addr:city": "Nottingham", "addr:housenumber": "2-4", "addr:postcode": "NG7 6BG", "addr:street": "Gregory Boulevard", "amenity": "place_of_worship", "name": "Shah Jahan Mosque", "religion": "muslim", "source": "survey;Yahoo"}}, {"type": "node", "id": 561251825, "lat": 52.9544575, "lon": -1.1718025, "tags": {"addr:city": "Nottingham", "addr:housenumber": "56", "addr:postcode": "NG7 1PW", "addr:street": "Rothesay Avenue", "amenity": "place_of_worship", "name": "Lenton Muslim Centre", "religion": "muslim", "source:addr": "survey", "source:addr:postcode": "ONS"}}, {"type": "node", "id": 2196359692, "lat": 52.963045, "lon": -1.1700746, "tags": {"addr:city": "Nottingham", "addr:postcode": "NG7 5AH", "addr:street": "A'court Street", "amenity": "place_of_worship", "name": "Shah Jalal Masjiid", "religion": "muslim", "source": "survey"}}, {"type": "node", "id": 2788618641, "lat": 52.9846688, "lon": -0.0187808, "tags": {"amenity": "place_of_worship", "name": "Boston Mosque & Islamic Centre", "religion": "muslim"}}, {"type": "node", "id": 3256479001, "lat": 52.9010573, "lon": -1.2772349, "tags": {"addr:city": "Nottingham", "addr:housenumber": "68", "addr:postcode": "NG10 4QP", "addr:street": "Derby Road", "addr:suburb": "Long Eaton", "amenity": "place_of_worship", "entrance": "main", "fixme": "Need to confirm status", "name": "Masjid", "religion": "muslim", "source": "survey"}}, {"type": "node", "id": 3332085208, "lat": 52.6341318, "lon": -1.1133074, "tags": {"addr:city": "Leicester", "addr:housename": "1st Floor", "addr:postcode": "LE2 0GU", "addr:street": "Melbourne Road", "alt_name": "Muslim Community Resource Centre Ltd", "amenity": "place_of_worship", "denomination": "sufi", "female": "yes", "level": "1", "male": "yes", "name": "Gulzar e Madina", "phone": "+44 116 251 1134", "religion": "muslim"}}, {"type": "node", "id": 3439319372, "lat": 52.97002, "lon": -1.1662228, "tags": {"addr:city": "Nottingham", "addr:housenumber": "141-143", "addr:postcode": "NG7 6HR", "addr:street": "Berridge Road", "alt_name": "Karimia Institute", "amenity": "place_of_worship", "name": "Karimia Masjid & Institute", "religion": "muslim", "source": "survey", "source:addr": "NCC Places of Worship Open Data"}}, {"type": "node", "id": 3661362573, "lat": 52.9893436, "lon": -1.1492682, "tags": {"addr:city": "Nottingham", "addr:postcode": "NG5 3HU", "addr:street": "Edwards Lane", "amenity": "place_of_worship", "note": "mapped separately from building, but in practice whole building may be mosque, certainly plans includinde an abultion are consonant with place of worship", "religion": "muslim", "source": "local_knowledge"}}, {"type": "node", "id": 3740611899, "lat": 52.6278525, "lon": -1.0987708, "tags": {"addr:city": "Leicester", "addr:housenumber": "77", "addr:postcode": "LE5 5LL", "addr:street": "Evington Valley Road", "amenity": "place_of_worship", "denomination": "sunni", "name": "Madani", "phone": "+44 116 249 8080", "religion": "muslim"}}, {"type": "node", "id": 3740621270, "lat": 52.6266319, "lon": -1.1070179, "tags": {"addr:city": "Leicester", "addr:housenumber": "72-74", "addr:postcode": "LE5 5JL", "addr:street": "Osmaston Road", "amenity": "place_of_worship", "denomination": "sunni", "name": "Masjid Fatima Zahra", "name:ar": "\u0645\u0633\u062c\u062f \u0641\u0627\u0637\u0645\u0629 \u0627\u0644\u0632\u0647\u0631\u0627\u0621", "religion": "muslim"}}, {"type": "node", "id": 3743515728, "lat": 52.9511813, "lon": -1.1255024, "tags": {"addr:city": "Nottingham", "addr:housenumber": "56-58", "addr:postcode": "NG2 4AG", "addr:street": "Thurgarton Street", "amenity": "place_of_worship", "name": "Jamia Masjid Sultania", "religion": "muslim", "source:addr": "NCC Open Data places of worship"}}, {"type": "node", "id": 4121180770, "lat": 52.9898272, "lon": -1.1559491, "tags": {"addr:city": "Nottingham", "addr:postcode": "NG5 1PB", "amenity": "place_of_worship", "female": "yes", "name": "Muslim Prayer Room", "religion": "muslim", "source": "survey"}}, {"type": "node", "id": 4121182696, "lat": 52.9898143, "lon": -1.1560296, "tags": {"addr:city": "Nottingham", "addr:postcode": "NG5 1PB", "amenity": "place_of_worship", "gender": "male", "male": "yes", "name": "Muslim Prayer Room", "religion": "muslim", "source": "survey"}}, {"type": "node", "id": 4715712714, "lat": 52.9441549, "lon": -1.1854507, "tags": {"addr:city": "Nottingham", "addr:postcode": "NG7 2UH", "amenity": "place_of_worship", "level": "3", "level:ref": "D", "name": "QMC Prayer Room Level 3", "religion": "muslim", "source": "surey"}}, {"type": "node", "id": 5435406439, "lat": 52.6386906, "lon": -1.1216685, "tags": {"addr:city": "Leicester", "addr:housenumber": "19", "addr:postcode": "LE1 2LP", "addr:street": "Brunswick Street", "amenity": "place_of_worship", "denomination": "sunni", "level": "1-2", "name": "Masjid al Quba", "phone": "+44 116 216 6237", "religion": "muslim"}}, {"type": "node", "id": 5455339632, "lat": 52.6410439, "lon": -1.1270419, "tags": {"addr:city": "Leicester", "addr:housenumber": "9", "addr:postcode": "LE1 3LQ", "addr:street": "Upper George Street", "amenity": "place_of_worship", "denomination": "sunni", "name": "Masjid Salahuddin", "religion": "muslim"}}, {"type": "node", "id": 5455339712, "lat": 52.6615781, "lon": -1.1523813, "tags": {"addr:postcode": "LE4 0SA", "amenity": "place_of_worship", "name": "Beaumont Leys Muslims", "religion": "muslim", "website": "https://www.blmuslims.org/"}}, {"type": "node", "id": 6178128375, "lat": 52.9625403, "lon": -1.1798459, "tags": {"addr:city": "Nottingham", "addr:housenumber": "74-76", "addr:postcode": "NG7 5QA", "addr:street": "Glentworth Road", "alt_name": "Masjid Bilal", "amenity": "place_of_worship", "denomination": "sunni", "name": "Masjid Noor", "religion": "muslim", "subdenomination": "deobandi"}}, {"type": "node", "id": 7055596032, "lat": 52.6399959, "lon": -1.1203802, "tags": {"addr:street": "Arnold Street", "amenity": "place_of_worship", "denomination": "sunni", "name": "Madani", "religion": "muslim"}}, {"type": "node", "id": 7055596033, "lat": 52.6483645, "lon": -1.0813836, "tags": {"addr:postcode": "LE5 0TE", "addr:street": "Thurmaston Lane", "amenity": "place_of_worship", "name": "Darul Arqam", "religion": "muslim"}}, {"type": "node", "id": 7055596034, "lat": 52.6305131, "lon": -1.1405991, "tags": {"amenity": "place_of_worship", "name": "DMU Prayer room", "religion": "muslim"}}, {"type": "node", "id": 7061205857, "lat": 52.6127089, "lon": -1.1244842, "tags": {"addr:housenumber": "355", "addr:street": "Welford Road", "amenity": "place_of_worship", "denomination": "sunni", "name": "Knighton Education Centre", "religion": "muslim"}}, {"type": "node", "id": 7061205860, "lat": 52.6446067, "lon": -1.1076951, "tags": {"addr:postcode": "LE5 0EZ", "addr:street": "Prestwold Road", "amenity": "place_of_worship", "name": "Muhaddith e Azam Community Centre", "religion": "muslim"}}, {"type": "node", "id": 11664987958, "lat": 52.951771, "lon": -1.1854388, "tags": {"amenity": "place_of_worship", "level": "1", "name": "UoN Prayer Room (Xu Yafen Building)", "religion": "muslim"}}, {"type": "node", "id": 11664987959, "lat": 52.9516525, "lon": -1.1854357, "tags": {"amenity": "place_of_worship", "level": "1", "name": "UoN Prayer Room (Xu Yafen Building)", "religion": "muslim"}}, {"type": "node", "id": 12569715600, "lat": 52.6535435, "lon": -1.0678742, "tags": {"addr:city": "Leicester", "addr:postcode": "LE5 1BJ", "addr:street": "Maidenwell Avenue", "addr:suburb": "Hamilton", "amenity": "place_of_worship", "denomination": "sunni", "name": "The Hamilton Hub", "religion": "muslim", "website": "https://dfhtrust.org/locations/the-hamilton-hub/"}}, {"type": "node", "id": 12942391044, "lat": 52.5824516, "lon": -0.246396, "tags": {"addr:city": "Peterborough", "addr:housenumber": "27", "addr:postcode": "PE1 2NP", "addr:street": "Norfolk Street", "addr:substreet": "The Courtyard", "addr:unit": "3B", "amenity": "place_of_worship", "denomination": "sunni", "note": "top floor of building. No wudu? Maybe more of a madrasa, but does have Friday prayers.", "operator": "The Islamic Cultural Centre", "operator:type": "charitable", "ref:GB-EAW:charity": "1152331", "religion": "muslim"}}, {"type": "node", "id": 13327052350, "lat": 52.6312739, "lon": -1.1020211, "tags": {"addr:housenumber": "100B", "addr:street": "Dorothy Road", "amenity": "place_of_worship", "name": "Tawakul", "religion": "muslim"}}, {"type": "node", "id": 13524956164, "lat": 52.9381611, "lon": -1.1943303, "tags": {"amenity": "place_of_worship", "name": "UoN Prayer Room Portland Building", "religion": "muslim"}}, {"type": "node", "id": 13524967129, "lat": 52.9577713, "lon": -1.1568216, "tags": {"amenity": "place_of_worship", "name": "NTU Prayer Room", "religion": "muslim"}}, {"type": "way", "id": 37015650, "center": {"lat": 52.9576091, "lon": -1.1427438}, "tags": {"addr:city": "Nottingham", "addr:housenumber": "3", "addr:postcode": "NG3 1DG", "addr:street": "Curzon Street", "amenity": "place_of_worship", "building": "mosque", "building:source": "Yahoo;survey", "denomination": "sunni", "name": "Nottingham Islamic Centre", "ref:GB:uprn": "200001378470", "religion": "muslim", "source": "survey", "source:addr": "NCC Open Data planning"}}, {"type": "way", "id": 54615647, "center": {"lat": 52.9101043, "lon": -1.4764435}, "tags": {"addr:city": "Derby", "addr:country": "GB", "addr:housenumber": "6", "addr:postcode": "DE23 8GA", "addr:street": "Rose Hill Street", "amenity": "place_of_worship", "building": "yes", "name": "Jamia Mosque Derby", "religion": "muslim", "source": "Bing;survey"}}, {"type": "way", "id": 54638017, "center": {"lat": 52.9137415, "lon": -1.4805647}, "tags": {"addr:city": "Derby", "addr:postcode": "DE23 6SB", "addr:street": "Mill Hill Lane", "amenity": "place_of_worship", "building": "yes", "denomination": "sunni", "name": "Masjid Al-Farooq", "ref:GB:uprn": "100032008891", "religion": "muslim", "source": "Bing;survey"}}, {"type": "way", "id": 55070265, "center": {"lat": 52.9172401, "lon": -1.4763066}, "tags": {"addr:city": "Derby", "addr:postcode": "DE1 2JR", "addr:street": "Wilmot Street", "amenity": "place_of_worship", "building": "mosque", "building:levels": "3", "building:material": "brick", "contact:facebook": "https://www.facebook.com/derbyislamiccentre/", "name": "Islamic Centre Derby", "ref:GB:uprn": "10010685765", "religion": "muslim", "roof:colour": "grey", "source": "OS_OpenData_StreetView"}}, {"type": "way", "id": 56187058, "center": {"lat": 52.9078945, "lon": -1.4782966}, "tags": {"addr:city": "Derby", "addr:postcode": "DE23 8GN", "addr:street": "Corden Street", "amenity": "place_of_worship", "building": "yes", "denomination": "sunni", "name": "Masjid Salaam", "religion": "muslim", "source": "Bing;survey"}}, {"type": "way", "id": 61738937, "center": {"lat": 52.9374039, "lon": -1.143991}, "tags": {"addr:city": "Nottingham", "addr:postcode": "NG2 2ET", "addr:street": "Collygate Road", "amenity": "place_of_worship", "building": "school", "name": "Meadows Muslim Centre", "note": "also community centre", "ref:GB:uprn": "200001407325", "religion": "muslim", "source": "survey", "source:addr": "NCC Open Data places of worship"}}, {"type": "way", "id": 70433440, "center": {"lat": 52.9070887, "lon": -1.4870572}, "tags": {"addr:city": "Derby", "addr:housenumber": "97", "addr:postcode": "DE23 6RB", "addr:street": "Porter Road", "amenity": "place_of_worship", "building": "yes", "ref:GB:uprn": "100032008397", "religion": "muslim", "source": "OS_OpenData_StreetView;survey"}}, {"type": "way", "id": 77610116, "center": {"lat": 52.9069272, "lon": -1.4890913}, "tags": {"addr:city": "Derby", "addr:country": "GB", "addr:housenumber": "153", "addr:postcode": "DE23 6RE", "addr:street": "Porter Road", "alt_name": "Jamiat Ahl-E-Hadith", "amenity": "place_of_worship", "building": "yes", "name": "Jamiat Ahl-e-Hadith & Al-Furquan Education Centre", "religion": "muslim", "source": "OS_OpenData_StreetView;survey"}}, {"type": "way", "id": 78398727, "center": {"lat": 52.9071001, "lon": -1.4712407}, "tags": {"addr:city": "Derby", "addr:country": "GB", "addr:housenumber": "52-54", "addr:postcode": "DE23 8HL", "addr:street": "Dairy House Road", "alt_name": "Dairyhouse Road Masjid", "amenity": "place_of_worship", "building": "yes", "name": "Derby Jamia Mosque", "ref:GB:uprn": "100030306779;100032009941", "religion": "muslim", "source": "OS_OpenData_StreetView;survey"}}, {"type": "way", "id": 80338759, "center": {"lat": 52.6578471, "lon": -1.1217889}, "tags": {"addr:city": "Leicester", "addr:housenumber": "159", "addr:postcode": "LE4 5LR", "addr:street": "Loughborough Road", "alt_name": "Masjid al Bukhari", "amenity": "place_of_worship", "building": "mosque", "denomination": "sunni", "name": "Masjid Ul Imam Il Bukhari", "name:ar": "\u0645\u0633\u062c\u062f \u0627\u0644\u0625\u0645\u0627\u0645 \u0627\u0644\u0628\u062e\u0627\u0631\u064a", "phone": "+44 116 266 6688", "religion": "muslim", "source": "os_opendata_streetview", "subdenomination": "deobandi", "website": "https://madrasahimambukhari.com/"}}, {"type": "way", "id": 103021050, "center": {"lat": 52.9189149, "lon": -1.2049352}, "tags": {"addr:city": "Nottingham", "addr:housenumber": "12", "addr:postcode": "NG9 1LH", "addr:street": "Victory Road", "addr:suburb": "Beeston Rylands", "amenity": "place_of_worship", "building": "mosque", "denomination": "sunni", "name": "Masjid Taybah", "ref:GB:uprn": "100032132086", "religion": "muslim", "source:addr": "website"}}, {"type": "way", "id": 117924965, "center": {"lat": 52.9519971, "lon": -1.1718087}, "tags": {"addr:city": "Nottingham", "addr:housenumber": "215", "addr:postcode": "NG7 1QJ", "addr:street": "Derby Road", "amenity": "place_of_worship", "building": "yes", "denomination": "sunni", "name": "Abu Bakr As-Saddique Mosque", "ref:GB:uprn": "100032127539", "religion": "muslim", "source": "Bing;survey", "source:addr": "survey", "source:postcode": "ONS"}}, {"type": "way", "id": 136988241, "center": {"lat": 52.6427619, "lon": -1.1271058}, "tags": {"addr:city": "Leicester", "addr:housenumber": "8", "addr:postcode": "LE1 3LE", "addr:street": "Britannia Street", "amenity": "place_of_worship", "building": "yes", "denomination": "sunni", "female": "yes", "male": "yes", "name": "Masjid Al Huda", "phone": "+44 116 251 4807", "religion": "muslim", "source": "Bing"}}, {"type": "way", "id": 184923960, "center": {"lat": 52.9706631, "lon": -1.1642632}, "tags": {"addr:city": "Nottingham", "addr:housenumber": "118A", "addr:postcode": "NG7 6HT", "addr:street": "Berridge Road", "amenity": "place_of_worship", "building": "cinema", "name": "Jameah Fatimiah Mosque", "phone": "+44 115 924 4004", "religion": "muslim", "source": "survey"}}, {"type": "way", "id": 185269438, "center": {"lat": 52.640024, "lon": -1.1083278}, "tags": {"addr:city": "Leicester", "addr:postcode": "LE5 3GH", "addr:street": "Spinney Hill Road", "amenity": "place_of_worship", "building": "yes", "denomination": "sunni", "name": "Baytul 'Ilm", "phone": "+44 116 251 1018", "religion": "muslim", "source": "Bing", "website": "http://www.baytulilm.com/"}}, {"type": "way", "id": 190426345, "center": {"lat": 52.7695431, "lon": -1.1981466}, "tags": {"addr:city": "Loughborough", "addr:country": "GB", "addr:county": "Leicestershire", "addr:housenumber": "83-85", "addr:postcode": "LE11 1SB", "addr:street": "King Street", "amenity": "place_of_worship", "building": "yes", "capacity": "540", "denomination": "sunni", "name": "Loughborough Mosque and Islamic Cultural Association", "note": "Bangladeshi", "phone": "+44 1509 214500", "religion": "muslim", "source": "Bing"}}, {"type": "way", "id": 195584331, "center": {"lat": 52.6285756, "lon": -1.1188467}, "tags": {"addr:city": "Leicester", "addr:housenumber": "21", "addr:postcode": "LE2 0NQ", "addr:street": "Tichborne Street", "amenity": "place_of_worship", "building": "yes", "denomination": "sunni", "name": "Markaz Quba", "phone": "+44 116 319 0220", "religion": "muslim", "source": "Bing"}}, {"type": "way", "id": 196201781, "center": {"lat": 52.6395135, "lon": -1.0942112}, "tags": {"addr:city": "Leicester", "addr:housenumber": "42-54", "addr:postcode": "LE5 4BG", "addr:street": "Smith Dorrien Road", "alt_name": "Masjid e Ali", "amenity": "place_of_worship", "building": "yes", "denomination": "sunni", "female": "no", "layer": "1", "male": "yes", "name": "Masjid Ali", "phone": "+44 116 274 2366", "religion": "muslim", "subdenomination": "deobandi"}}, {"type": "way", "id": 203361356, "center": {"lat": 52.6407911, "lon": -1.1257486}, "tags": {"addr:city": "Leicester", "addr:housenumber": "1", "addr:postcode": "LE1 2HX", "addr:street": "Kamloops Crescent", "alt_name": "ACCA Furqan", "amenity": "place_of_worship", "building": "industrial", "denomination": "sunni", "female": "yes", "male": "yes", "name": "Masjid Al-Furqan", "religion": "muslim", "source": "Bing"}}, {"type": "way", "id": 204180729, "center": {"lat": 52.9519869, "lon": -1.1259401}, "tags": {"addr:city": "Nottingham", "addr:housenumber": "54", "addr:postcode": "NG2 4HE", "addr:street": "Sneinton Dale", "amenity": "place_of_worship", "building": "pub", "name": "Jamia Masjid Sultania And Education Centre", "religion": "muslim", "source": "NCC Open Data", "source:building": "Bing"}}, {"type": "way", "id": 210529380, "center": {"lat": 52.9277725, "lon": -1.2048107}, "tags": {"addr:city": "Nottingham", "addr:postcode": "NG9 2EU", "addr:street": "Evelyn Street", "addr:suburb": "Beeston", "amenity": "place_of_worship", "building": "yes", "name": "Beeston Muslim Centre", "ref:GB:uprn": "10002216671", "religion": "muslim", "source": "survey;Bing"}}, {"type": "way", "id": 220751030, "center": {"lat": 52.9127955, "lon": -0.641504}, "tags": {"addr:city": "Grantham", "addr:housenumber": "7", "addr:postcode": "NG31 6RE", "addr:street": "Elmer Street North", "alt_name": "GMCA", "amenity": "place_of_worship", "building": "yes", "name": "Grantham Islamic Centre", "ref:GB:uprn": "100032254685", "religion": "muslim"}}, {"type": "way", "id": 221529835, "center": {"lat": 52.97942, "lon": -1.1724348}, "tags": {"addr:city": "Nottingham", "addr:housenumber": "379", "addr:postcode": "NG7 7EU", "addr:street": "Nottingham Road", "amenity": "place_of_worship", "building": "yes", "disused:amenity": "church_hall", "email": "basfordculturecentre@hotmail.com", "mobile": "+44 7970 970205", "name": "Basford Culture Centre", "old_name": "Saint Leodegarius Church Hall", "ref:GB:uprn": "200001392857", "religion": "muslim", "source": "survey;local knowledge", "source:building": "Bing", "website": "https://basfordcc.org/"}}, {"type": "way", "id": 222044089, "center": {"lat": 52.9643126, "lon": -1.178144}, "tags": {"addr:city": "Nottingham", "addr:housenumber": "398", "addr:postcode": "NG7 5NG", "addr:street": "Alfreton Road", "amenity": "place_of_worship", "building": "yes", "name": "Masjid Umar", "old_amenity": "pub", "old_name": "Le Grand", "ref:GB:uprn": "10000134727;100032129887;100031511382", "religion": "muslim", "source": "survey", "source:addr": "NCC Open Data", "website": "https://www.masjidumar.org.uk/"}}, {"type": "way", "id": 228486383, "center": {"lat": 52.9709277, "lon": -1.1738295}, "tags": {"addr:city": "Nottingham", "addr:housenumber": "24", "addr:postcode": "NG7 6GA", "addr:street": "Gladstone Street", "alt_name": "Jami Masjid, Muslim Foundation & Dar ul 'Uloom", "amenity": "place_of_worship", "building": "yes", "name": "Jami Masjid", "old_name": "Gurdwara Baba Budha Ji", "old_religion": "sikh", "ref:GB:uprn": "200001381511;10023985858;10023985857", "religion": "muslim", "source": "survey"}}, {"type": "way", "id": 236058204, "center": {"lat": 52.5769497, "lon": -0.2543777}, "tags": {"ablution": "yes", "addr:city": "Peterborough", "addr:housenumber": "116", "addr:place": "West Town", "addr:postcode": "PE3 6DD", "addr:street": "Midland Road", "amenity": "place_of_worship", "building": "yes", "denomination": "sunni", "female": "no", "name": "Madina Madrassa & Spiritual Centre", "operator": "Darassalam", "operator:type": "charitable", "ref:GB:charity_no": "1127717", "religion": "muslim", "service_times:syndicator": "Masjid Timetable (Lentrica Software)", "service_times:syndicator:url": "https://masjid-timetable.com/masjid-data/", "shower": "no", "toilet": "yes", "website": "https://darassalaam.org.uk", "wheelchair": "no"}}, {"type": "way", "id": 241950400, "center": {"lat": 52.9472361, "lon": -1.1735217}, "tags": {"addr:city": "Nottingham", "addr:housenumber": "15", "addr:postcode": "NG7 1SD", "addr:street": "Osmaston Street", "amenity": "place_of_worship", "building": "yes", "name": "Al Zahra Foundation", "old_amenity": "school", "old_name": "Lenton Primary School", "religion": "muslim", "source": "survey", "source:addr": "website", "website": "http://www.alzahrafoundation.org.uk/"}}, {"type": "way", "id": 253656751, "center": {"lat": 52.6414669, "lon": -1.0940344}, "tags": {"addr:street": "Haynes Road", "amenity": "place_of_worship", "building": "yes", "name": "Abu Huraira", "religion": "muslim"}}, {"type": "way", "id": 253664420, "center": {"lat": 52.6525675, "lon": -1.0954757}, "tags": {"addr:city": "Leicester", "addr:housenumber": "8", "addr:postcode": "LE4 9EE", "addr:street": "Essex Road", "amenity": "place_of_worship", "building": "yes", "denomination": "sunni", "name": "Northfields Education Centre", "religion": "muslim", "subdenomination": "deobandi"}}, {"type": "way", "id": 277148064, "center": {"lat": 52.5803299, "lon": -0.2489767}, "tags": {"addr:city": "Peterborough", "addr:housenumber": "175", "addr:postcode": "PE1 2BN", "addr:street": "Gladstone Street", "amenity": "place_of_worship", "building": "mosque", "denomination": "sunni", "facebook": "https://www.facebook.com/FEMPboro", "female": "limited", "name": "Faizan-e-Madina Mosque", "operator": "Faizan-E-Madina Mosque Committee (Trust)", "operator:type": "charitable", "ref:GB-EAW:charity": "1045629", "religion": "muslim", "service_times:url": "https://faizanemadina.org/prayer-times/", "source": "local knowledge;Bing", "website": "https://faizanemadina.org/", "wheelchair": "limited", "wikidata": "Q5431359"}}, {"type": "way", "id": 295867680, "center": {"lat": 52.9559521, "lon": -1.1171158}, "tags": {"addr:city": "Nottingham", "addr:housename": "Ahmadiyya Muslim Association", "addr:housenumber": "308", "addr:postcode": "NG3 7DN", "addr:street": "Sneinton Dale", "alt_name": "Baitul Hafeez", "alt_name:ur": "\u0628\u06cc\u062a \u0627\u0644\u062d\u0641\u06cc\u0638", "amenity": "place_of_worship", "building": "yes", "denomination": "ahmadiyya", "name": "Baitul Hafeez Mosque", "name:ur": "\u0645\u0633\u062c\u062f \u0628\u06cc\u062a \u0627\u0644\u062d\u0641\u06cc\u0638", "ref:GB:uprn": "10090904997", "religion": "muslim", "website": "https://loveforallhatredfornone.org"}}, {"type": "way", "id": 299732114, "center": {"lat": 52.9552083, "lon": -1.1357401}, "tags": {"addr:city": "Nottingham", "addr:housenumber": "28", "addr:postcode": "NG3 1JE", "addr:street": "Handel Street", "amenity": "place_of_worship", "building": "cemevi", "contact:website": "http://www.alevinet.org/SAP.aspx?pid=About_en-GB", "denomination": "alevi", "image": "https://www.mapillary.com/map/im/8Bsz79Wya6gjlitBAqr8Tw", "name": "Nottingham Alevi Cultural Centre & Cemevi", "name:tr": "Nottingham Alevi K\u00fclt\u00fcr Merkezi ve Cemevi", "ref:GB:uprn": "100032116655", "religion": "muslim", "source:addr": "survey"}}, {"type": "way", "id": 338674798, "center": {"lat": 52.9714865, "lon": -1.1613821}, "tags": {"addr:city": "Nottingham", "addr:postcode": "NG7 6JA", "addr:street": "Alberta Terrace", "amenity": "place_of_worship", "building": "church", "denomination": "sunni", "name": "Madni Masjid", "note": "formerly a Primitive Methodist Church", "ref:GB:uprn": "100032130059", "religion": "muslim", "source": "survey;NCC Places of Worship Open Data"}}, {"type": "way", "id": 355298073, "center": {"lat": 52.9864102, "lon": -1.1801876}, "tags": {"addr:city": "Nottingham", "addr:postcode": "NG6 0DG", "addr:street": "Queensberry Street", "amenity": "place_of_worship", "building": "yes", "name": "Masjid Al-Kharza", "phone": "+44 115 837 1338", "ref:GB:uprn": "10034852038", "religion": "muslim", "source": "survey", "source:name": "survey"}}, {"type": "way", "id": 356861004, "center": {"lat": 52.9565446, "lon": -1.1939007}, "tags": {"addr:city": "Nottingham", "addr:housenumber": "43", "addr:postcode": "NG8 1NB", "addr:street": "Radford Bridge Road", "amenity": "place_of_worship", "building": "yes", "description": "\"Masjid / The Quran School / Dawah Centre\"", "name": "Muslim Cultural Centre Wollaton", "operator": "Karimia Institute", "religion": "muslim", "source": "survey", "source:addr": "Banner outside", "website": "https://www.karimia.com/"}}, {"type": "way", "id": 404115764, "center": {"lat": 52.6168852, "lon": -1.1260974}, "tags": {"addr:city": "Leicester", "addr:housenumber": "176", "addr:postcode": "LE2 6BD", "addr:street": "Welford Road", "amenity": "place_of_worship", "building": "yes", "name": "Masjid us Sunnah", "religion": "muslim", "website": "https://masjid-us-sunnah.com/"}}, {"type": "way", "id": 405292731, "center": {"lat": 52.6242263, "lon": -1.1018273}, "tags": {"addr:city": "Leicester", "addr:housenumber": "1-3", "addr:postcode": "LE5 5PF", "addr:street": "Evington Drive", "alt_name": "Evington Muslim Centre;Khazinat Al-'Ilm", "amenity": "place_of_worship", "building": "mosque", "denomination": "sunni", "name": "Masjid Umar", "name:ar": "\u0645\u0633\u062c\u062f \u0639\u0645\u0631", "phone": "+44 116 283 5529", "ref:GB:uprn": "2465098485", "religion": "muslim", "subdenomination": "deobandi", "website": "https://www.masjid-umar.org/", "wikidata": "Q6783356"}}, {"type": "way", "id": 419543489, "center": {"lat": 52.5181338, "lon": -1.472211}, "tags": {"amenity": "place_of_worship", "building": "mosque", "religion": "muslim"}}, {"type": "way", "id": 429214701, "center": {"lat": 52.9633241, "lon": -1.1697434}, "tags": {"addr:city": "Nottingham", "addr:housenumber": "22", "addr:postcode": "NG7 5AJ", "addr:street": "Hubert Street", "amenity": "place_of_worship", "building": "yes", "name": "Jamia Islamia Education Centre", "ref:GB:uprn": "100032129561", "religion": "muslim", "source": "survey"}}, {"type": "way", "id": 458940239, "center": {"lat": 52.6369341, "lon": -1.105215}, "tags": {"addr:city": "Leicester", "addr:housenumber": "51", "addr:postcode": "LE5 3QJ", "addr:street": "Asfordby Street", "alt_name": "Jamia Mosque", "amenity": "place_of_worship", "building": "mosque", "denomination": "sunni", "name": "Jame", "name:en": "Jame'ah Uloom ul Qur'an", "phone": "+44 116 262 7737", "religion": "muslim", "subdenomination": "deobandi", "website": "http://www.jameah.co.uk/"}}, {"type": "way", "id": 458940452, "center": {"lat": 52.6279428, "lon": -1.1526767}, "tags": {"addr:city": "Leicester", "addr:housenumber": "55", "addr:postcode": "LE3 0JD", "addr:street": "Barclay Street", "amenity": "place_of_worship", "building": "yes", "denomination": "sunni", "female": "yes", "male": "yes", "name": "Masjid Abu Bakr", "phone": "+44 116 254 5552", "religion": "muslim"}}, {"type": "way", "id": 459225246, "center": {"lat": 52.6314629, "lon": -1.1061479}, "tags": {"addr:city": "Leicester", "addr:housenumber": "298", "addr:postcode": "LE5 5AY", "addr:street": "East Park Road", "alt_name": "Al Masjid & Madarasah Al Furqan;North Evington Deeni Cultural Centre", "amenity": "place_of_worship", "building": "yes", "denomination": "sunni", "name": "Furqan", "opening_hours": "\"All Salah Hours\"", "phone": "+44 116 273 5799", "ref:GB:uprn": "2465103895", "religion": "muslim"}}, {"type": "way", "id": 459225247, "center": {"lat": 52.6309511, "lon": -1.1096934}, "tags": {"addr:city": "Leicester", "addr:housenumber": "22-28", "addr:postcode": "LE5 5AN", "addr:street": "Cork Street", "amenity": "place_of_worship", "building": "yes", "denomination": "sunni", "name": "Masjid e Aisha", "phone": "+44 116 212 4883", "ref:GB:uprn": "2465154386", "religion": "muslim", "subdenomination": "deobandi", "website": "http://www.masjidaisha.co.uk"}}, {"type": "way", "id": 459225250, "center": {"lat": 52.6228698, "lon": -1.1029059}, "tags": {"addr:city": "Leicester", "addr:housenumber": "59", "addr:postcode": "LE5 5UD", "addr:street": "Stoughton Drive North", "amenity": "place_of_worship", "building": "yes", "name": "Masjid Tabuk & Evington Muslim Centre", "ref:GB:uprn": "2465098764", "religion": "muslim", "service_times": "Only Jumma, timings follow Masjid Umar"}}, {"type": "way", "id": 459225251, "center": {"lat": 52.63426, "lon": -1.1101351}, "tags": {"addr:city": "Leicester", "addr:housenumber": "146-152", "addr:postcode": "LE2 0FS", "addr:street": "Berners Street", "amenity": "place_of_worship", "building": "mosque", "denomination": "sunni", "name": "Masjid an Noor", "name:ar": "\u0645\u0633\u062c\u062f \u0627\u0644\u0646\u0648\u0631", "phone": "+44 116 262 5540", "ref:GB:uprn": "2465104072", "religion": "muslim", "subdenomination": "deobandi"}}, {"type": "way", "id": 461639566, "center": {"lat": 52.6351991, "lon": -1.1150051}, "tags": {"addr:city": "Leicester", "addr:housenumber": "3-13", "addr:postcode": "LE2 0AL", "addr:street": "Keythorpe Street", "air_conditioning": "yes", "amenity": "place_of_worship", "building": "yes", "check_date": "2024-09-10", "denomination": "sunni", "female": "no", "male": "yes", "name": "Masjid al Falah & Islamic Educational Trust", "phone": "+44 116 251 1833", "religion": "muslim", "subdenomination": "deobandi", "wheelchair": "yes"}}, {"type": "way", "id": 461639567, "center": {"lat": 52.635988, "lon": -1.1168681}, "tags": {"addr:city": "Leicester", "addr:housenumber": "1A", "addr:postcode": "LE2 0AH", "addr:street": "Garendon Street", "amenity": "place_of_worship", "building": "yes", "denomination": "sunni", "name": "Tajdaar e Madina", "phone": "+44 7974 949929", "religion": "muslim", "website": "https://www.temadina.co.uk/"}}, {"type": "way", "id": 461639570, "center": {"lat": 52.6368859, "lon": -1.1133119}, "tags": {"addr:city": "Leicester", "addr:housenumber": "162", "addr:postcode": "LE2 0HB", "addr:street": "Nedham Street", "alt_name": "Tablighi Markaz", "amenity": "place_of_worship", "building": "yes", "check_date": "2024-09-10", "denomination": "sunni", "name": "Masjid e Usman", "operator": "Tabligh Jamati's", "phone": "+44 1162 262 1059", "religion": "muslim", "subdenomination": "deobandi"}}, {"type": "way", "id": 461767650, "center": {"lat": 52.6322866, "lon": -1.1215754}, "tags": {"addr:city": "Leicester", "addr:postcode": "LE2 0JN", "addr:street": "Conduit Street", "alt_name": "The Islamic Centre;World Islamic Centre (Midlands)", "amenity": "place_of_worship", "building": "yes", "denomination": "sunni", "name": "Leicester Central Mosque", "phone": "+44 116 254 4459", "religion": "muslim", "subdenomination": "barelvi", "website": "https://www.islamiccentre.org/"}}, {"type": "way", "id": 467544872, "center": {"lat": 52.6322137, "lon": -1.1165171}, "tags": {"addr:city": "Leicester", "addr:housenumber": "71", "addr:postcode": "LE2 0UX", "addr:street": "Guthlaxton Street", "alt_name": "Rehman", "amenity": "place_of_worship", "building": "yes", "denomination": "sunni", "name": "Masjid Ar-Rahman", "name:ar": "\u0645\u0633\u062c\u062f \u0627\u0644\u0631\u062d\u0645\u0646", "religion": "muslim", "subdenomination": "deobandi"}}, {"type": "way", "id": 469922088, "center": {"lat": 52.6411898, "lon": -1.1303347}, "tags": {"addr:city": "Leicester", "addr:housenumber": "170a", "addr:postcode": "LE1 3XL", "addr:street": "Belgrave Gate", "amenity": "place_of_worship", "building": "yes", "denomination": "sunni", "name": "Masjid An Noor", "religion": "muslim"}}, {"type": "way", "id": 564076354, "center": {"lat": 52.6293244, "lon": -1.1126164}, "tags": {"addr:city": "Leicester", "addr:housenumber": "2a", "addr:postcode": "LE2 1DS", "addr:street": "Sutherland Street", "alt_name": "The Islamic Centre;World Islamic Centre (Midlands)", "amenity": "place_of_worship", "building": "yes", "denomination": "sufi", "name": "Leicester Mosque", "phone": "+44 116 285 4052", "religion": "muslim", "website": "https://www.islamiccentre.org/"}}, {"type": "way", "id": 564076370, "center": {"lat": 52.633918, "lon": -1.0992347}, "tags": {"addr:city": "Leicester", "addr:housenumber": "308", "addr:postcode": "LE5 4HJ", "addr:street": "Saint Saviour's Road", "alt_name": "Uthmani Masjid;Usmani Mosque", "amenity": "place_of_worship", "building": "industrial", "denomination": "sunni", "name": "Masjid e Usmani", "old_name": "Park Vale Works", "phone": "+44 7875 043391", "religion": "muslim", "subdenomination": "sufi", "website": "https://www.usmanimosque.com/"}}, {"type": "way", "id": 564076403, "center": {"lat": 52.6409177, "lon": -1.0997212}, "tags": {"amenity": "place_of_worship", "building": "yes", "denomination": "shia", "name": "Masjid-Al-Husayn Mosque", "religion": "muslim"}}, {"type": "way", "id": 564076418, "center": {"lat": 52.6267841, "lon": -1.1017697}, "tags": {"addr:city": "Leicester", "addr:housenumber": "80", "addr:postcode": "LE5 5LJ", "addr:street": "Evington Valley Road", "amenity": "place_of_worship", "building": "yes", "denomination": "sufi", "name": "Jamia Masjid-e-Bilal", "phone": "+44 116 249 0887", "religion": "muslim"}}, {"type": "way", "id": 564111394, "center": {"lat": 52.6591212, "lon": -1.0780242}, "tags": {"addr:city": "Leicester", "addr:housenumber": "31", "addr:postcode": "LE5 1TL", "addr:street": "Waterside Road", "alt_name": "Leicester Jamatkhana", "amenity": "place_of_worship", "building": "yes", "denomination": "shia", "female": "yes", "male": "yes", "name": "Ismaili Jamaat Khana", "religion": "muslim"}}, {"type": "way", "id": 564111404, "center": {"lat": 52.5996616, "lon": -1.0845787}, "tags": {"addr:city": "Oadby", "addr:postcode": "LE2 5AR", "addr:street": "Sandhurst Street", "alt_name": "Oadby Central Mosque;Oadby & Wigston Muslim Association", "amenity": "place_of_worship", "building": "yes", "building:levels": "1", "denomination": "sunni", "email": "info@owma.org.uk", "name": "Masjid al Ameen", "religion": "muslim", "roof:shape": "flat", "website": "http://owma.org.uk"}}, {"type": "way", "id": 564111405, "center": {"lat": 52.6418743, "lon": -1.1053957}, "tags": {"addr:city": "Leicester", "addr:housenumber": "1", "addr:postcode": "LE5 3LX", "addr:street": "Harewood Street", "alt_name": "Masjid at-Taqwa", "amenity": "place_of_worship", "building": "residential", "denomination": "sunni", "female": "yes", "male": "yes", "name": "Masjid at-Taqwa Islamic Education Centre", "phone": "+44 116 212 6772", "religion": "muslim", "subdenomination": "salafi", "website": "https://www.attaqwa.co.uk/"}}, {"type": "way", "id": 564160007, "center": {"lat": 52.6317248, "lon": -1.0945509}, "tags": {"addr:city": "Leicester", "addr:housenumber": "362", "addr:postcode": "LE5 4HJ", "addr:street": "Saint Saviour's Road", "amenity": "place_of_worship", "building": "yes", "denomination": "sunni", "female": "yes", "male": "yes", "name": "Taybah Islamic Centre", "phone": "+44 116 249 0076", "religion": "muslim", "subdenomination": "salafi", "website": "http://www.taybahcentre.com/"}}, {"type": "way", "id": 564160008, "center": {"lat": 52.6383891, "lon": -1.1057035}, "tags": {"addr:city": "Leicester", "addr:housenumber": "6", "addr:postcode": "LE5 3SN", "addr:street": "Sylvan Avenue", "alt_name": "Masjid Salahuddin", "amenity": "place_of_worship", "building": "industrial", "name": "Hafsah Islamic Centre", "phone": "+44 116 216 6234", "religion": "muslim"}}, {"type": "way", "id": 564160012, "center": {"lat": 52.6287277, "lon": -1.1135503}, "tags": {"addr:city": "Leicester", "addr:housenumber": "22-26", "addr:postcode": "LE2 1DQ", "addr:street": "St Stephens Road", "amenity": "place_of_worship", "building": "yes", "denomination": "sunni", "female": "yes", "male": "yes", "name": "Masjid-e-Baitul Mukaram", "phone": "+44 116 254 6138", "religion": "muslim", "subdenomination": "deobandi"}}, {"type": "way", "id": 564160015, "center": {"lat": 52.6304257, "lon": -1.117372}, "tags": {"addr:city": "Leicester", "addr:housenumber": "1-3", "addr:postcode": "LE2 0SA", "addr:street": "Evington Street", "amenity": "place_of_worship", "building": "yes", "denomination": "sufi", "female": "yes", "male": "yes", "name": "Madrasa-e-Anjuman-e-Ghousia Mosque", "religion": "muslim"}}, {"type": "way", "id": 566466521, "center": {"lat": 52.6349908, "lon": -1.1094571}, "tags": {"addr:city": "Leicester", "addr:housenumber": "127", "addr:postcode": "LE5 5GQ", "addr:street": "Mere Road", "amenity": "place_of_worship", "building": "yes", "denomination": "sunni", "name": "Madressah-e-Rahimiyah", "religion": "muslim", "source:addr:postcode": "code-point_open"}}, {"type": "way", "id": 566466523, "center": {"lat": 52.6289546, "lon": -1.1182715}, "tags": {"addr:city": "Leicester", "addr:housenumber": "44", "addr:postcode": "LE2 1AD", "addr:street": "Highfield Street", "amenity": "place_of_worship", "building": "residential", "denomination": "sufi", "female": "yes", "male": "yes", "name": "Jamia Sufiya", "phone": "+44 116 255 3926", "religion": "muslim", "website": "https://jamiasufiya.co.uk/"}}, {"type": "way", "id": 566466525, "center": {"lat": 52.6382189, "lon": -1.0567746}, "tags": {"addr:city": "Leicester", "addr:postcode": "LE5 2NG", "addr:street": "Thurncourt Road", "alt_name": "As Salaam Trust Masjid", "amenity": "place_of_worship", "building": "yes", "denomination": "sunni", "female": "yes", "male": "yes", "name": "The Peace Centre", "phone": "+44 116 241 7100", "religion": "muslim", "website": "http://www.as-salaamtrust.org/"}}, {"type": "way", "id": 566466526, "center": {"lat": 52.6301155, "lon": -1.1108214}, "tags": {"addr:city": "Leicester", "addr:housenumber": "126-128", "addr:postcode": "LE2 0DQ", "addr:street": "Earl Howe Street", "amenity": "place_of_worship", "building": "mosque", "denomination": "sunni", "name": "Majles-e-Dawat Ul Haq", "religion": "muslim", "toilets:wheelchair": "no", "wheelchair": "limited"}}, {"type": "way", "id": 566466527, "center": {"lat": 52.6282239, "lon": -1.1169963}, "tags": {"addr:city": "Leicester", "addr:housenumber": "55-57", "addr:postcode": "LE2 1GL", "addr:street": "Upper Tichborne Street", "alt_name": "Dar-us-Salam Mosque", "amenity": "place_of_worship", "building": "yes", "denomination": "sunni", "male": "only", "name": "Dar Es Salam", "religion": "muslim"}}, {"type": "way", "id": 566466528, "center": {"lat": 52.6551749, "lon": -1.1255395}, "tags": {"addr:city": "Leicester", "addr:housenumber": "126A", "addr:postcode": "LE4 5HH", "addr:street": "Ross Walk", "amenity": "place_of_worship", "building": "industrial", "denomination": "sunni", "layer": "1", "name": "Al Bayaan Arabic Foundation", "religion": "muslim", "subdenomination": "deobandi", "website": "https://www.albayaanarabicfoundation.com/"}}, {"type": "way", "id": 566466530, "center": {"lat": 52.6329925, "lon": -1.0720575}, "tags": {"addr:city": "Leicester", "addr:housenumber": "60", "addr:postcode": "LE5 6TB", "addr:street": "Gamel Road", "amenity": "place_of_worship", "building": "yes", "building:levels": "1", "denomination": "sunni", "female": "yes", "male": "yes", "name": "Masjid Mu'adh ibn Jabal", "religion": "muslim", "website": "http://www.muadhibnjabal.org/"}}, {"type": "way", "id": 566466543, "center": {"lat": 52.6359222, "lon": -1.1409847}, "tags": {"addr:city": "Leicester", "addr:housenumber": "16-18", "addr:postcode": "LE1 4JT", "addr:street": "Great Central Street", "amenity": "place_of_worship", "denomination": "sufi", "female": "yes", "male": "yes", "name": "Hamidiye Camii", "phone": "+44 116 262 4465", "religion": "muslim", "website": "https://www.suleymaniye.org/", "wheelchair": "limited"}}, {"type": "way", "id": 566466545, "center": {"lat": 52.639036, "lon": -1.1212795}, "tags": {"addr:city": "Leicester", "addr:housenumber": "24", "addr:postcode": "LE1 2LT", "addr:street": "Madras Road", "amenity": "place_of_worship", "building": "yes", "denomination": "sunni", "layer": "1", "name": "Hajra Masjid", "name:ar": "\u0645\u0633\u062c\u062f \u062d\u062c\u0631\u0647", "religion": "muslim", "wheelchair": "no"}}, {"type": "way", "id": 566466553, "center": {"lat": 52.6316998, "lon": -1.099369}, "tags": {"addr:city": "Leicester", "addr:housename": "Linden House", "addr:housenumber": "55", "addr:postcode": "LE5 5EE", "addr:street": "Linden Street", "amenity": "place_of_worship", "building": "yes", "denomination": "sunni", "name": "Noor ul Islam", "religion": "muslim"}}, {"type": "way", "id": 566466556, "center": {"lat": 52.6314726, "lon": -1.1042688}, "tags": {"addr:city": "Leicester", "addr:housenumber": "41", "addr:postcode": "LE5 5FL", "addr:street": "Gwendolen Road", "amenity": "place_of_worship", "building": "residential", "building:levels": "2", "denomination": "sunni", "name": "UKIM - Leicester Islamic Centre", "religion": "muslim", "subdenomination": "maudoodi"}}, {"type": "way", "id": 566466562, "center": {"lat": 52.6271452, "lon": -1.1052977}, "tags": {"addr:city": "Leicester", "addr:housenumber": "82", "addr:postcode": "LE5 5HW", "addr:street": "Kedleston Road", "amenity": "place_of_worship", "building": "residential", "denomination": "sunni", "name": "Darus Salam Mosque", "religion": "muslim"}}, {"type": "way", "id": 566466566, "center": {"lat": 52.6043616, "lon": -1.112973}, "tags": {"addr:city": "Leicester", "addr:housenumber": "74", "addr:postcode": "LE2 3YH", "addr:street": "Overdale Road", "amenity": "place_of_worship", "building": "residential", "denomination": "shia", "name": "Anjuman-e-Saifee", "religion": "muslim"}}, {"type": "way", "id": 614121834, "center": {"lat": 52.9776263, "lon": -0.0302034}, "tags": {"addr:city": "Boston", "addr:postcode": "PE21 8RJ", "amenity": "place_of_worship", "building": "yes", "name": "Mosque Al-Noor", "ref:GB:uprn": "200001828544", "religion": "muslim"}}, {"type": "way", "id": 627546095, "center": {"lat": 52.5854166, "lon": -0.2515036}, "tags": {"addr:city": "Peterborough", "addr:housenumber": "406", "addr:postcode": "PE1 2BY", "addr:street": "Gladstone Street", "amenity": "place_of_worship", "building": "mosque", "building:levels": "2", "denomination": "sunni", "female": "limited", "name": "Masjid Ghousia", "operator": "Masjid Ghousia Jamia Markaz Ahl-E- Sunnat Wah-Jamaat (Peterborough)", "operator:type": "charitable", "ref:GB-EAW:charity": "1131838", "religion": "muslim", "service_times:url": "https://masjidghousia.org/namaaz-times-new/", "website": "https://masjidghousia.org", "wheelchair": "yes"}}, {"type": "way", "id": 628560305, "center": {"lat": 52.5834485, "lon": -0.2480617}, "tags": {"addr:city": "Peterborough", "addr:country": "GB", "addr:housenumber": "311", "addr:postcode": "PE1 2HP", "addr:street": "Cromwell Road", "amenity": "place_of_worship", "building": "mosque", "building:levels": "2", "denomination": "sunni", "female": "yes", "name": "Masjid Khadijah and Islamic Centre", "operator": "United Kingdom Islamic Mission", "operator:type": "charitable", "ref:GB-EAW:charity": "1127246", "religion": "muslim", "service_times": "fajr; zhuhr; asr; maghrib; isha", "service_times:syndicator": "Masjid Box", "service_times:syndicator:url": "https://masjidbox.com/bonnetider/khadijah", "service_times:url": "https://ukimpeterborough.org.uk/prayer-times/", "website": "https://ukimpeterborough.org.uk/", "wheelchair": "yes"}}, {"type": "way", "id": 628818828, "center": {"lat": 52.5753694, "lon": -0.2282559}, "tags": {"addr:city": "Peterborough", "addr:housenumber": "4", "addr:postcode": "PE1 5HD", "addr:street": "Burton Street", "amenity": "place_of_worship", "building": "mosque", "building:levels": "2", "denomination": "shia", "female": "yes", "fhrs:id": "590180", "name": "Husaini Islamic Centre", "operator": "The Muslim Khoja Shia Ithna-Asheri Community of Peterborough", "operator:type": "charitable", "ref:GB-EAW:charity": "273130", "religion": "muslim", "subdenomination": "ithna-asheri"}}, {"type": "way", "id": 651819198, "center": {"lat": 52.5777401, "lon": -0.2472668}, "tags": {"addr:city": "Peterborough", "addr:housenumber": "60", "addr:postcode": "PE1 2EA", "addr:street": "Cromwell Road", "amenity": "place_of_worship", "building": "yes", "denomination": "sunni", "description": "If closed, Kurdish shopkeepers opposite can often give access.", "name": "Masjid Al-Raheem", "religion": "muslim"}}, {"type": "way", "id": 705792558, "center": {"lat": 52.6639143, "lon": -1.0895369}, "tags": {"addr:housenumber": "5", "addr:street": "Claymill Road", "amenity": "place_of_worship", "building": "yes", "name": "Masjid Muhammed", "religion": "muslim"}}, {"type": "way", "id": 756032582, "center": {"lat": 52.5364796, "lon": -1.3775223}, "tags": {"addr:city": "Hinckley", "addr:housenumber": "102", "addr:postcode": "LE10 0QE", "addr:street": "Rugby Road", "amenity": "place_of_worship", "building": "yes", "mobile": "+44 7921 192864", "name": "Madinah Masjid", "ref:GB:uprn": "100030509039", "religion": "muslim"}}, {"type": "way", "id": 1100744210, "center": {"lat": 52.6145133, "lon": -1.1192869}, "tags": {"addr:city": "Leicester", "addr:housename": "Ahmadiyya Muslim Association", "addr:housenumber": "95", "addr:postcode": "LE2 3EQ", "addr:street": "Avenue Road Extension", "alt_name": "Baitul Ikram", "alt_name:ur": "\u0628\u06cc\u062a \u0627\u0644\u0627\u06a9\u0631\u0627\u0645", "amenity": "place_of_worship", "building": "mosque", "denomination": "ahmadiyya", "name": "Baitul Ikram Mosque", "name:ur": "\u0645\u0633\u062c\u062f \u0628\u06cc\u062a \u0627\u0644\u0627\u06a9\u0631\u0627\u0645", "religion": "muslim", "wikidata": "Q124745200", "wikipedia": "en:Baitul Ikram Mosque, Leicester"}}, {"type": "way", "id": 1238103528, "center": {"lat": 52.9474108, "lon": -1.1743355}, "tags": {"amenity": "place_of_worship", "building": "yes", "name": "Masjid-E-Bilaal", "religion": "muslim"}}, {"type": "way", "id": 1272760799, "center": {"lat": 52.5778914, "lon": -0.2456837}, "tags": {"addr:city": "Peterborough", "addr:street": "Craig Street", "amenity": "place_of_worship", "building": "yes", "denomination": "ismaili", "name": "Peterborough Jamatkhana", "religion": "muslim"}}, {"type": "way", "id": 1279015737, "center": {"lat": 52.6418557, "lon": -1.1047678}, "tags": {"addr:city": "Leicester", "addr:housenumber": "393", "addr:postcode": "LE5 3DF", "addr:street": "Humberstone Road", "amenity": "place_of_worship", "building": "yes", "denomination": "sunni", "name": "Masjid At-Taqwa", "religion": "muslim", "subdenomination": "salafi"}}, {"type": "way", "id": 1279017860, "center": {"lat": 52.6417346, "lon": -1.1077302}, "tags": {"amenity": "place_of_worship", "building": "yes", "denomination": "sunni", "name": "Faiz e Raza", "religion": "muslim"}}, {"type": "way", "id": 1319835681, "center": {"lat": 52.5651488, "lon": -0.2494425}, "tags": {"addr:city": "Peterborough", "addr:postcode": "PE2 9AG", "addr:street": "Grove Street", "alt_name": "Salahdin Mosque", "amenity": "place_of_worship", "building": "yes", "denomination": "sunni", "description": "Primary language: Sorani Kurdish", "name": "Salahaddin Community Centre", "name:ckb": "\u0645\u0632\u06af\u06d5\u0648\u062a\u06cc \u0635\u06d5\u0644\u0627\u062d\u06d5\u062f\u06cc\u0646", "operator": "Bradost Charitable Trust", "ref:GB:charity_no": "1197876", "religion": "muslim", "service_times:url": "https://time.my-masjid.com/timingscreen/6b129042-d459-43c5-be2e-4ccf0a066150"}}, {"type": "way", "id": 1322886232, "center": {"lat": 52.5969396, "lon": -1.0811465}, "tags": {"addr:housenumber": "31", "addr:postcode": "LE2 5QE", "addr:street": "Wigston Road", "amenity": "place_of_worship", "building": "yes", "denomination": "sunni", "name": "Masjid Adam", "religion": "muslim", "website": "https://oadbych.org/"}}, {"type": "way", "id": 1361292936, "center": {"lat": 52.6039378, "lon": -1.1398945}, "tags": {"addr:city": "Leicester", "addr:housenumber": "20", "addr:postcode": "LE2 8QU", "addr:street": "Hallaton Street", "amenity": "place_of_worship", "building": "yes", "name": "Masjid E Abdullah ibn Mas'ud", "operator": "Saffron Community Trust", "religion": "muslim"}}, {"type": "way", "id": 1478870898, "center": {"lat": 52.6601833, "lon": -1.0671408}, "tags": {"addr:city": "Leicester", "addr:housenumber": "202", "addr:postcode": "LE5 1PL", "addr:street": "Sandhills Avenue", "addr:suburb": "Hamilton", "amenity": "place_of_worship", "building": "retail", "denomination": "sunni", "name": "Baytul Ihsaan", "religion": "muslim", "website": "https://dfhtrust.org/locations/baytul-ihsaan/"}}, {"type": "node", "id": 306463490, "lat": 54.9705697, "lon": -1.6486262, "tags": {"addr:city": "Newcastle upon Tyne", "addr:housename": "Turkish Community Association", "addr:housenumber": "35", "addr:postcode": "NE4 8SA", "addr:street": "Grainger Park Road", "amenity": "place_of_worship", "denomination": "sunni", "name": "Kotku Mosque", "phone": "+44 191 273 9000", "religion": "muslim"}}, {"type": "node", "id": 694152692, "lat": 54.5529201, "lon": -1.2987553, "tags": {"amenity": "place_of_worship", "name": "Thornaby Mosque", "religion": "muslim"}}, {"type": "node", "id": 785648904, "lat": 54.5297414, "lon": -1.5565794, "tags": {"addr:city": "Darlington", "addr:housenumber": "25-26", "addr:postcode": "DL3 6LY", "addr:street": "North Lodge Terrace", "amenity": "place_of_worship", "name": "Jamie Mosque & Islamic Society of Darlington", "phone": "+44 1325 250839", "religion": "muslim", "website": "https://www.tsurc.org/darlington/home.html"}}, {"type": "node", "id": 4236616980, "lat": 54.970153, "lon": -1.6453997, "tags": {"addr:city": "Newcastle upon Tyne", "addr:housenumber": "77", "addr:postcode": "NE4 6UX", "addr:street": "Bentinck Road", "amenity": "place_of_worship", "name": "Newcastle Tawheed Islamic Centre", "religion": "muslim"}}, {"type": "node", "id": 6446471321, "lat": 54.5579994, "lon": -1.319505, "tags": {"addr:city": "Stockton-on-Tees", "addr:housenumber": "16", "addr:postcode": "TS18 3JQ", "addr:street": "Northcote Street", "amenity": "place_of_worship", "name": "Jamia Masjid Usman-e-Ghani", "phone": "+44 1642 676636", "religion": "muslim"}}, {"type": "node", "id": 9074851066, "lat": 54.9712449, "lon": -1.6384053, "tags": {"amenity": "place_of_worship", "name": "Shahjal Mosque", "religion": "muslim"}}, {"type": "node", "id": 13128419079, "lat": 54.5762281, "lon": -1.2481693, "tags": {"amenity": "place_of_worship", "name": "New Abu Bakr Mosque", "religion": "muslim"}}, {"type": "way", "id": 303656639, "center": {"lat": 54.6930551, "lon": -1.2162475}, "tags": {"addr:city": "Hartlepool", "addr:housename": "Nasir Mosque", "addr:housenumber": "42", "addr:postcode": "TS24 8EY", "addr:street": "Brougham Terrace", "amenity": "place_of_worship", "building": "mosque", "building:levels": "2", "denomination": "ahmadiyya", "name": "Nasir Mosque", "name:he": "\u05de\u05e1\u05d2\u05d3 \u05e0\u05d0\u05e6\u05e8", "name:pa-Arab": "\u0646\u0627\u0635\u0631 \u0645\u0633\u06cc\u062a", "name:pnb": "\u0646\u0627\u0635\u0631 \u0645\u0633\u06cc\u062a", "name:ur": "\u0645\u0633\u062c\u062f \u0646\u0627\u0635\u0631", "ref:GB:uprn": "10009715752", "religion": "muslim", "start_date": "2005-11-11", "toilets": "yes", "wikidata": "Q6967145", "wikipedia": "en:Nasir Mosque"}}, {"type": "way", "id": 370689714, "center": {"lat": 54.547116, "lon": -1.3248718}, "tags": {"addr:city": "Stockton-on-Tees", "addr:housename": "Pragnell House", "addr:postcode": "TS18 3TT", "addr:street": "Sopwith Close", "amenity": "place_of_worship", "building": "yes", "name": "Tees Valley Muslim Community Centre", "religion": "muslim"}}, {"type": "way", "id": 389102310, "center": {"lat": 54.5704923, "lon": -1.2311806}, "tags": {"addr:city": "Middlesbrough", "addr:housenumber": "30", "addr:postcode": "TS1 3EX", "addr:street": "Southfield Road", "amenity": "place_of_worship", "building": "church", "name": "Dar-ul Islam Central Mosque", "phone": "+44 1642 254585", "religion": "muslim", "source": "Bing"}}, {"type": "way", "id": 401459734, "center": {"lat": 54.9561958, "lon": -1.60335}, "tags": {"addr:city": "Gateshead", "addr:housenumber": "1", "addr:postcode": "NE8 1NR", "addr:street": "Ely Street", "amenity": "place_of_worship", "building": "church", "denomination": "sunni", "name": "Masjid Awliya Allah", "ref:GB:uprn": "10022987590", "religion": "muslim", "source": "Bing"}}, {"type": "way", "id": 424071830, "center": {"lat": 54.96918, "lon": -1.6400528}, "tags": {"addr:city": "Newcastle upon Tyne", "addr:postcode": "NE4 6SU", "addr:street": "Malvern Street", "alt_name": "Central Newcastle Mosque", "amenity": "place_of_worship", "building": "mosque", "name": "Bilal Jamia Masjid", "ref:GB:uprn": "4510700977", "religion": "muslim"}}, {"type": "way", "id": 434315492, "center": {"lat": 54.902607, "lon": -1.3975112}, "tags": {"amenity": "place_of_worship", "building": "yes", "name": "Sunderland Jami-Masjid", "religion": "muslim"}}, {"type": "way", "id": 436518936, "center": {"lat": 54.9902343, "lon": -1.4400354}, "tags": {"addr:city": "South Shields", "amenity": "place_of_worship", "building": "yes", "name": "Al Azhar Mosque", "ref:GB:uprn": "200000002672", "religion": "muslim"}}, {"type": "way", "id": 443149108, "center": {"lat": 54.9058474, "lon": -1.4012136}, "tags": {"addr:city": "Sunderland", "addr:housename": "Masjid e Anwaar e Madinah", "addr:postcode": "SR4 7EG", "addr:street": "St Mark's Road North", "amenity": "place_of_worship", "building": "mosque", "denomination": "sunni", "name": "Masjid e Anwaar e Madinah", "religion": "muslim"}}, {"type": "way", "id": 465374293, "center": {"lat": 54.9800811, "lon": -1.6488164}, "tags": {"addr:city": "Newcastle upon Tyne", "addr:postcode": "NE4 9HS", "addr:street": "Wingrove Gardens", "amenity": "place_of_worship", "building": "mosque", "name": "Madina Masjid", "ref:GB:uprn": "4510722033", "religion": "muslim", "website": "http://www.madinamasjidnewcastle.org.uk/"}}, {"type": "way", "id": 469006887, "center": {"lat": 54.9925853, "lon": -1.5397368}, "tags": {"addr:city": "Wallsend", "addr:housename": "Ahmadiyya Muslim Community", "addr:housenumber": "36", "addr:postcode": "NE28 8LF", "addr:street": "North Road", "alt_name:ur": "\u0628\u06cc\u062a \u0627\u0644\u0639\u0637\u0627", "amenity": "place_of_worship", "building": "church", "denomination": "ahmadiyya", "name": "Baitul Ata", "name:ur": "\u0645\u0633\u062c\u062f \u0628\u06cc\u062a \u0627\u0644\u0639\u0637\u0627\u0621", "religion": "muslim", "source": "Bing"}}, {"type": "way", "id": 469398148, "center": {"lat": 54.9858067, "lon": -1.5816489}, "tags": {"amenity": "place_of_worship", "building": "yes", "denomination": "sunni", "name": "Heaton Mosque & Islamic Centre", "religion": "muslim"}}, {"type": "way", "id": 480309977, "center": {"lat": 54.9735727, "lon": -1.6473047}, "tags": {"amenity": "place_of_worship", "building": "mosque", "name": "Newcasyle Central Mosque", "ref:GB:uprn": "4510114789", "religion": "muslim", "source": "Bing", "website": "https://www.newcastlecentralmosque.com/"}}, {"type": "way", "id": 502300435, "center": {"lat": 54.7658026, "lon": -1.5758409}, "tags": {"amenity": "place_of_worship", "building": "chapel", "name": "Islamic Prayer Rooms", "note:opening_hours": "dduring the month of Ramadan the operational hours will be assessed to accommodate the needs of the community.", "old_name": "Greys Bungalow", "opening_hours": "7:30-22:30", "religion": "muslim", "university": "Durham University"}}, {"type": "way", "id": 687656246, "center": {"lat": 54.5596792, "lon": -1.3184707}, "tags": {"addr:city": "Stockton-on-Tees", "addr:postcode": "TS18 3EB", "addr:street": "Bowesfield Lane", "amenity": "place_of_worship", "building": "mosque", "check_date": "2021-04-26", "contact:facebook": "https://www.facebook.com/StocktonJamiaMasjid", "name": "Farooq-e-Azam Mosque & Islamic Centre", "phone": "+44 1642 679943", "religion": "muslim", "wikidata": "Q117355442"}}, {"type": "way", "id": 1158181483, "center": {"lat": 54.9020926, "lon": -1.3768614}, "tags": {"amenity": "place_of_worship", "building": "yes", "name": "Hendon Jami Masjid", "religion": "muslim"}}, {"type": "way", "id": 1223281346, "center": {"lat": 54.575377, "lon": -1.2426391}, "tags": {"amenity": "place_of_worship", "building": "yes", "name": "Hussainiat Al Zahra", "religion": "muslim"}}, {"type": "way", "id": 1410333620, "center": {"lat": 54.5516213, "lon": -1.249208}, "tags": {"addr:city": "Middlesbrough", "addr:housename": "Masjid Maryam", "addr:postcode": "TS5 7RX", "addr:street": "Green Lane", "amenity": "place_of_worship", "building": "yes", "name": "Masjid Maryam", "religion": "muslim"}}, {"type": "way", "id": 1410334295, "center": {"lat": 54.5683004, "lon": -1.2310964}, "tags": {"addr:city": "Midlesbrough", "addr:housename": "Jamia Masjid Al-Madina", "addr:housenumber": "133a", "addr:postcode": "TS1 3JB", "addr:street": "Waterloo Road", "amenity": "place_of_worship", "building": "yes", "name": "Jamia Masjid Al-Madina", "religion": "muslim"}}, {"type": "way", "id": 1428046678, "center": {"lat": 54.5704059, "lon": -1.2542496}, "tags": {"amenity": "place_of_worship", "building": "yes", "name": "Al-Mustafa Centre", "religion": "muslim"}}, {"type": "way", "id": 1428063744, "center": {"lat": 54.5679856, "lon": -1.2384483}, "tags": {"amenity": "place_of_worship", "building": "yes", "name": "Masjid-E-Ali Ibn Abu Talib", "religion": "muslim"}}, {"type": "way", "id": 1428064757, "center": {"lat": 54.5796256, "lon": -1.1786937}, "tags": {"amenity": "place_of_worship", "building": "yes", "name": "Masjid-E-Nomira", "religion": "muslim"}}, {"type": "way", "id": 1428065359, "center": {"lat": 54.5704899, "lon": -1.2431122}, "tags": {"amenity": "place_of_worship", "building": "yes", "name": "Madrisa Zia-Ul-Quran", "religion": "muslim"}}, {"type": "way", "id": 1428078010, "center": {"lat": 54.5782657, "lon": -1.1738156}, "tags": {"amenity": "place_of_worship", "building": "yes", "name": "South Bank Mosque", "religion": "muslim"}}, {"type": "node", "id": 7638240544, "lat": 55.0426434, "lon": -1.4408736, "tags": {"addr:housenumber": "6", "amenity": "place_of_worship", "name": "North Tyneside Bangladeshi Community Association & Mosque", "religion": "muslim"}}, {"type": "node", "id": 10761152105, "lat": 55.0097822, "lon": -1.6146126, "tags": {"addr:city": "Newcastle upon Tyne", "addr:postcode": "NE3 1XD", "addr:street": "Christon Road", "amenity": "place_of_worship", "contact:phone": "+44 7880 726359", "name": "Gosforth Prayer Hall", "religion": "muslim", "website": "https://gosforthprayerhall.com"}}, {"type": "way", "id": 436734521, "center": {"lat": 55.0013101, "lon": -1.4290163}, "tags": {"amenity": "place_of_worship", "building": "mosque", "name": "Baitul Ma'mur Jame-E- Masjid and Islamic Center", "ref:GB:uprn": "103002522;200000000251", "religion": "muslim"}}, {"type": "way", "id": 453678377, "center": {"lat": 55.0358186, "lon": -1.4541559}, "tags": {"addr:city": "Whitley Bay", "addr:postcode": "NE25 8HR", "addr:street": "Hillheads Road", "amenity": "place_of_worship", "building": "yes", "denomination": "sunni", "email": "info@wbicc.org.uk", "name": "Whitley Bay Islamic Cultural Centre and Masjid", "phone": "+44 191 251 2525", "ref:GB:uprn": "47076179", "religion": "muslim", "source": "Bing", "website": "https://wbicc.org.uk/"}}, {"type": "node", "id": 1990934810, "lat": 53.4025917, "lon": -2.9638314, "tags": {"amenity": "place_of_worship", "name": "Prayer Room", "religion": "muslim"}}, {"type": "node", "id": 13160159368, "lat": 53.1836681, "lon": -3.4182086, "tags": {"addr:city": "Denbigh", "addr:housenumber": "10", "addr:postcode": "LL16 3NU", "addr:street": "Hall Square", "amenity": "place_of_worship", "name": "Denbigh Mosque", "religion": "muslim"}}, {"type": "way", "id": 254523652, "center": {"lat": 53.385356, "lon": -3.0323839}, "tags": {"addr:city": "Birkenhead", "addr:housenumber": "371-375", "addr:street": "Borough Road", "amenity": "place_of_worship", "building": "yes", "building:levels": "2", "name": "Wirral Deen Centre", "ref:GB:uprn": "42168038;42192475;42013431", "religion": "muslim", "smoking": "no"}}, {"type": "way", "id": 271731109, "center": {"lat": 53.3943047, "lon": -2.9606484}, "tags": {"amenity": "place_of_worship", "building": "yes", "name": "Al-Rahma Mosque", "religion": "muslim", "wikidata": "Q311444", "wikipedia": "en:Al-Rahma Mosque, Liverpool"}}, {"type": "way", "id": 302245826, "center": {"lat": 53.1990065, "lon": -2.9244912}, "tags": {"addr:postcode": "CH1 5LT", "amenity": "place_of_worship", "building": "yes", "height": "6.65", "height:median": "4.51", "name": "Shah Jalal Mosque", "ref:GB:uprn": "200000987488", "religion": "muslim"}}, {"type": "way", "id": 322572271, "center": {"lat": 53.3200739, "lon": -3.4931998}, "tags": {"amenity": "place_of_worship", "building": "yes", "name": "Islamic Cultural Centre", "religion": "muslim"}}, {"type": "way", "id": 322578667, "center": {"lat": 53.3156099, "lon": -3.4781392}, "tags": {"amenity": "place_of_worship", "building": "yes", "name": "Galler Turkish Mosque", "religion": "muslim"}}, {"type": "way", "id": 464339045, "center": {"lat": 53.4142884, "lon": -2.9605132}, "tags": {"addr:city": "Liverpool", "addr:housenumber": "8-10", "addr:street": "Brougham Terrace", "amenity": "place_of_worship", "building": "yes", "denomination": "sunni", "name": "Abdullah Quilliam Mosque", "religion": "muslim"}}, {"type": "way", "id": 507330862, "center": {"lat": 53.4246172, "lon": -2.9554255}, "tags": {"addr:city": "Liverpool", "addr:housename": "Ahmadiyya Muslim Community", "addr:housenumber": "309", "addr:postcode": "L5 6PU", "addr:street": "Breck Road", "alt_name": "Baitul Lateef", "alt_name:en": "Bait ul Lateef;Bait-ul-Lateef", "alt_name:ur": "\u0628\u06cc\u062a \u0627\u0644\u0644\u0637\u06cc\u0641", "amenity": "place_of_worship", "building": "church", "denomination": "ahmadiyya", "name": "Baitul Lateef Mosque", "name:ur": "\u0645\u0633\u062c\u062f \u0628\u06cc\u062a \u0627\u0644\u0644\u0637\u06cc\u0641", "religion": "muslim", "wikidata": "Q15272512", "wikipedia:en": "Baitul Lateef Mosque"}}, {"type": "way", "id": 512110550, "center": {"lat": 53.3149106, "lon": -3.4981311}, "tags": {"addr:city": "Rhyl", "addr:housename": "Ahmadiyya Muslim Association", "addr:housenumber": "19a", "addr:postcode": "LL18 1DP", "addr:street": "Warren Road", "alt_name": "Ahmadiyya Mosque;Baitus Sadiq Mosque;Baitus Sadiq", "alt_name:ur": "\u0628\u06cc\u062a \u0627\u0644\u0635\u0627\u062f\u0642;\u0645\u0633\u062c\u062f \u0628\u06cc\u062a \u0627\u0644\u0635\u0627\u062f\u0642", "amenity": "place_of_worship", "building": "church", "denomination": "ahmadiyya", "name": "Sadiq Mosque", "name:ur": "\u0645\u0633\u062c\u062f \u0635\u0627\u062f\u0642", "religion": "muslim"}}, {"type": "way", "id": 650262937, "center": {"lat": 53.4009954, "lon": -2.9225601}, "tags": {"amenity": "place_of_worship", "building": "yes", "name": "Felicity House", "religion": "muslim"}}, {"type": "way", "id": 856965114, "center": {"lat": 53.0481649, "lon": -2.9973032}, "tags": {"addr:city": "Wrexham", "addr:housenumber": "6", "addr:street": "Grosvenor Road", "amenity": "place_of_worship", "building": "mosque", "name": "Wrexham Islamic Cultural Centre", "name:en": "Wrexham Islamic Cultural Centre", "old_name": "North Wales Mine Workers Institute", "old_name:en": "North Wales Mine Workers Institute", "religion": "muslim", "short_name": "Wrexham Mosque", "short_name:en": "Wrexham Mosque"}}, {"type": "way", "id": 1311059305, "center": {"lat": 53.3956979, "lon": -2.9579343}, "tags": {"amenity": "place_of_worship", "building": "yes", "name": "Masjid Omar Mukhtar", "religion": "muslim"}}, {"type": "node", "id": 361266226, "lat": 55.9384166, "lon": -3.218234, "tags": {"amenity": "place_of_worship", "name": "Idara Taleem ul Quran", "religion": "muslim"}}, {"type": "node", "id": 722514457, "lat": 55.9006658, "lon": -3.6421959, "tags": {"addr:city": "Bathgate", "addr:housenumber": "5", "addr:street": "Whitburn Road", "amenity": "place_of_worship", "name": "Sarajia Islamic Center", "phone": "+44 1506 635380", "postal_code": "EH48 1HE", "religion": "muslim"}}, {"type": "node", "id": 3012746390, "lat": 55.8714691, "lon": -4.2718878, "tags": {"addr:city": "Glasgow", "addr:housenumber": "19", "addr:postcode": "G4 9AJ", "addr:street": "Carrington Street", "amenity": "place_of_worship", "check_date": "2024-06-09", "denomination": "sunni", "name": "Al Furqan Mosque", "religion": "muslim", "website": "https://www.alfurqanmosque.com/"}}, {"type": "node", "id": 11181555589, "lat": 55.9107186, "lon": -3.3223449, "tags": {"amenity": "place_of_worship", "level": "-1", "name": "Muslim Prayer Room", "religion": "muslim"}}, {"type": "node", "id": 12093684687, "lat": 55.8393653, "lon": -4.2736727, "tags": {"addr:city": "Glasgow", "addr:housenumber": "257", "addr:street": "Kenmure Street", "amenity": "place_of_worship", "denomination": "sunni", "name": "Zia Ul Quran Centre", "religion": "muslim", "website": "https://zia-ul-quran.org"}}, {"type": "node", "id": 12149876353, "lat": 55.9603093, "lon": -3.183322, "tags": {"addr:housenumber": "8a", "addr:street": "Annandale Street Lane", "amenity": "place_of_worship", "check_date": "2024-09-01", "name": "Shahjalal Mosque", "religion": "muslim"}}, {"type": "node", "id": 12509126586, "lat": 55.9359209, "lon": -3.1299256, "tags": {"addr:city": "Edinburgh", "addr:housenumber": "63", "addr:postcode": "EH16 4NX", "addr:street": "Niddrie Mains Terrace", "amenity": "place_of_worship", "email": "eemforum@gmail.com", "name": "Niddrie Masjid", "religion": "muslim", "website": "https://niddrie.go2masjid.website/index.php/contact-us/"}}, {"type": "node", "id": 12509161234, "lat": 55.9552088, "lon": -3.1192155, "tags": {"addr:city": "Edinburgh", "addr:housenumber": "3", "addr:postcode": "EH15 1DH", "addr:street": "Fishwives Causeway", "amenity": "place_of_worship", "name": "Portobello Mosque", "religion": "muslim", "website": "https://portobello.go2masjid.website/"}}, {"type": "node", "id": 12731995999, "lat": 55.6186982, "lon": -2.8128772, "tags": {"addr:city": "Galashiels", "addr:housenumber": "6A", "addr:postcode": "TD1 1PB", "addr:street": "Roxburgh Street", "amenity": "place_of_worship", "name": "Borders Islamic Society", "religion": "muslim"}}, {"type": "way", "id": 30971801, "center": {"lat": 55.9450099, "lon": -3.1858397}, "tags": {"addr:city": "Edinburgh", "addr:housenumber": "50", "addr:postcode": "EH8 9BT", "addr:street": "Potterrow", "amenity": "place_of_worship", "building": "yes", "denomination": "sunni", "fhrs:id": "1603379", "name": "Edinburgh Central Mosque", "religion": "muslim", "source": "Bing", "website": "https://www.edmosque.org/", "wheelchair": "no", "wikidata": "Q1144643", "wikipedia": "en:Edinburgh Central Mosque"}}, {"type": "way", "id": 55592696, "center": {"lat": 55.9018082, "lon": -3.4986369}, "tags": {"addr:city": "Livingston", "addr:postcode": "EH54 5DT", "addr:street": "Craingshill Road", "amenity": "place_of_worship", "building": "yes", "name": "Anware Madina Mosque", "phone": "+44 1506 431 165", "religion": "muslim"}}, {"type": "way", "id": 71020311, "center": {"lat": 55.9301377, "lon": -3.1678363}, "tags": {"amenity": "place_of_worship", "building": "church", "name": "IQRA Academy", "religion": "muslim", "source": "NLS_OS_Edinburgh_map_1940s", "website": "https://www.iqraacademy.org/"}}, {"type": "way", "id": 80249100, "center": {"lat": 55.8417756, "lon": -4.1777266}, "tags": {"addr:city": "Glasgow", "addr:housenumber": "179", "addr:postcode": "G32 8PJ", "addr:street": "Braidfauld Street", "amenity": "place_of_worship", "building": "yes", "listed_status": "Category B", "name": "Al-Tawheed Mosque", "old_name": "St Margaret's Church", "ref:GB:uprn": "906700347008", "religion": "muslim", "wikidata": "Q17815452"}}, {"type": "way", "id": 90524311, "center": {"lat": 55.9721944, "lon": -3.1752063}, "tags": {"addr:city": "Edinburgh", "addr:housenumber": "123", "addr:postcode": "EH6 5JB", "addr:street": "Great Junction Street", "amenity": "place_of_worship", "building": "church", "check_date": "2022-10-18", "denomination": "sufi", "name": "Mohiuddin Jamia Masjid & Education Centre", "phone": "+44 131 555 1116", "religion": "muslim", "source": "NLS_OS_Edinburgh_map_1940s;Bing;survey"}}, {"type": "way", "id": 93234815, "center": {"lat": 55.9605648, "lon": -3.1852708}, "tags": {"amenity": "place_of_worship", "building": "mosque", "check_date": "2025-03-23", "denomination": "sunni", "name": "Anwar-E-Madina Mosque and Community Centre", "religion": "muslim", "source": "Bing;survey", "unisex": "yes", "website": "http://www.anwar-e-madina.co.uk/"}}, {"type": "way", "id": 101594312, "center": {"lat": 55.9444914, "lon": -3.2001538}, "tags": {"amenity": "place_of_worship", "building": "church", "check_date": "2025-06-05", "contact:facebook": "https://www.facebook.com/daralarqamedin", "height": "12", "name": "Dar Al-Arqam", "old_name": "Lauriston United Presbyterian Church", "phone": "+44 131 563 8246", "religion": "muslim", "source": "NLS_OS_Edinburgh_map_1940s;Bing;survey", "website": "http://www.dar-alarqam.org/"}}, {"type": "way", "id": 149605558, "center": {"lat": 56.1134618, "lon": -3.9329979}, "tags": {"addr:city": "Stirling", "addr:housename": "Central Scotland Islamic Centre", "addr:postcode": "FK7 7NZ", "addr:street": "Burghmuir Road", "amenity": "place_of_worship", "building": "yes", "loc_name": "Stirling Mosque", "name": "Central Scotland Islamic Centre", "religion": "muslim", "source": "Bing;local knowledge"}}, {"type": "way", "id": 156336652, "center": {"lat": 55.8404944, "lon": -4.2605152}, "tags": {"amenity": "place_of_worship", "building": "yes", "name": "Khazra Central Mosque", "religion": "muslim"}}, {"type": "way", "id": 156683355, "center": {"lat": 55.8347342, "lon": -4.2627225}, "tags": {"addr:city": "Glasgow", "addr:postcode": "G42 8EJ", "amenity": "place_of_worship", "building": "yes", "ref:GB:uprn": "906700256814", "religion": "muslim"}}, {"type": "way", "id": 178552469, "center": {"lat": 55.9737788, "lon": -3.1761214}, "tags": {"addr:city": "Edinburgh", "addr:housenumber": "1", "addr:postcode": "EH6 6TN", "addr:street": "King Street", "amenity": "place_of_worship", "building": "yes", "check_date": "2023-09-21", "denomination": "shia", "name": "Shia Community Centre Edinburgh", "operator": "Wali-Al-Asir Trust", "religion": "muslim", "source": "Bing", "website": "https://mosques.muslimsinbritain.org/maps-mobile.php?id=591"}}, {"type": "way", "id": 183066031, "center": {"lat": 55.861287, "lon": -4.0050649}, "tags": {"addr:city": "Coatbridge", "addr:housenumber": "10", "addr:postcode": "ML5 3PU", "addr:street": "Quarry Street", "amenity": "place_of_worship", "building": "yes", "name": "Islamic Society of Airdrie & Coatbridge", "ref:GB:uprn": "118169576", "religion": "muslim"}}, {"type": "way", "id": 222442853, "center": {"lat": 55.852444, "lon": -4.2509515}, "tags": {"amenity": "place_of_worship", "building": "mosque", "denomination": "sunni", "female": "yes", "height": "3", "heritage": "2", "heritage:operator": "Historic Environment Scotland", "name": "Glasgow Central Mosque", "operator": "Jamiat Ittihad-Ul-Muslimin", "ref:GB-SCT:charity": "SC013142", "ref:GB:hs": "LB52642", "religion": "muslim", "source": "OS OpenData StreetView", "wikidata": "Q3493426", "wikipedia": "en:Glasgow Central Mosque"}}, {"type": "way", "id": 229364057, "center": {"lat": 55.8666552, "lon": -3.9849344}, "tags": {"addr:city": "Airdrie", "addr:housenumber": "41", "addr:postcode": "ML6 0BS", "addr:street": "Bell Street", "amenity": "place_of_worship", "building": "yes", "name": "Airdrie & Coatbridge Islamic Centre", "religion": "muslim"}}, {"type": "way", "id": 232214059, "center": {"lat": 55.8426216, "lon": -4.2699656}, "tags": {"addr:city": "Glasgow", "addr:postcode": "G41 2TA", "amenity": "place_of_worship", "building": "church", "ref:GB:uprn": "906700351268", "religion": "muslim", "source": "OS_OpenData_StreetView;bing"}}, {"type": "way", "id": 235960872, "center": {"lat": 55.8822216, "lon": -4.363733}, "tags": {"addr:city": "Glasgow", "addr:postcode": "G14 0XA", "addr:street": "Burnham Road", "amenity": "place_of_worship", "building": "yes", "building:levels": "2", "name": "Masjid Umar", "ref:GB:uprn": "906700352888", "religion": "muslim", "source": "bing"}}, {"type": "way", "id": 243007668, "center": {"lat": 55.9284073, "lon": -3.27709}, "tags": {"addr:city": "Edinburgh", "addr:postcode": "EH11 3RH", "addr:street": "Broomhouse Crescent", "amenity": "place_of_worship", "building": "mosque", "building:levels": "1", "height": "3", "name": "Broomhouse Mosque", "religion": "muslim"}}, {"type": "way", "id": 258458722, "center": {"lat": 55.8753148, "lon": -3.1050124}, "tags": {"addr:city": "Bonnyrigg", "addr:housenumber": "12", "addr:postcode": "EH19 3AD", "addr:street": "Lothian Street", "amenity": "place_of_worship", "building": "library", "contact:website": "https://mmccbonnyriggmosque.co.uk/", "name": "Madinah Masjid & Community Centre", "religion": "muslim", "wikidata": "Q17826568"}}, {"type": "way", "id": 273916864, "center": {"lat": 56.0706783, "lon": -3.4606722}, "tags": {"addr:city": "Dunfermline", "addr:country": "GB", "addr:housenumber": "6", "addr:postcode": "KY12 7PX", "addr:street": "Canmore Street", "amenity": "place_of_worship", "building": "yes", "denomination": "sunni", "name": "Green Dome Mosque", "ref:GB:uprn": "320188566", "religion": "muslim", "wikidata": "Q135665566"}}, {"type": "way", "id": 278144293, "center": {"lat": 55.8170835, "lon": -3.9916862}, "tags": {"addr:postcode": "ML4 2RS", "amenity": "place_of_worship", "building": "yes", "ref:GB:uprn": "118170479", "religion": "muslim"}}, {"type": "way", "id": 406990786, "center": {"lat": 55.9612397, "lon": -3.2575997}, "tags": {"addr:city": "Edinburgh", "addr:housenumber": "1", "addr:postcode": "EH4 2AJ", "addr:street": "House O' Hill Road", "amenity": "place_of_worship", "building": "mosque", "email": "info@blackhallmosque.com", "name": "Blackhall Mosque", "phone": "+44 131 343 3802", "religion": "muslim", "source": "survey", "website": "https://www.blackhallmosque.com/"}}, {"type": "way", "id": 413903618, "center": {"lat": 56.1308876, "lon": -3.1750972}, "tags": {"amenity": "place_of_worship", "building": "yes", "name": "Kirkcaldy Central Mosque", "religion": "muslim"}}, {"type": "way", "id": 460379599, "center": {"lat": 55.9587575, "lon": -4.0120383}, "tags": {"addr:city": "Cumbernauld", "addr:housenumber": "5", "addr:postcode": "G68 0LS", "addr:street": "Craighalbert Way", "amenity": "place_of_worship", "building": "mosque", "name": "Islamic Education Trust Cumbernauld", "religion": "muslim", "website": "http://islamictrust.org"}}, {"type": "way", "id": 467493315, "center": {"lat": 55.9979575, "lon": -3.7807457}, "tags": {"addr:city": "Falkirk", "addr:housename": "Falkirk Central Mosque", "addr:housenumber": "10", "addr:postcode": "FK1 1UG", "addr:street": "Burnhead Lane", "amenity": "place_of_worship", "building": "mosque", "name": "Falkirk Central Mosque", "ref:GB:uprn": "136075057", "religion": "muslim"}}, {"type": "way", "id": 475361970, "center": {"lat": 55.9012767, "lon": -3.5675834}, "tags": {"addr:city": "Livingston", "addr:housenumber": "7", "addr:postcode": "EH54 8BE", "addr:street": "Main Street", "addr:suburb": "Deans", "amenity": "place_of_worship", "building": "yes", "name": "Livingston Masjid & Islamic Centre", "religion": "muslim"}}, {"type": "way", "id": 530423639, "center": {"lat": 55.795005, "lon": -4.2727246}, "tags": {"addr:city": "Glasgow", "addr:postcode": "G76 8LJ", "addr:street": "Stamperland Gardens", "amenity": "place_of_worship", "building": "yes", "name": "Clarkston Community Centre", "old_name": "Stamperland Church", "ref:GB:uprn": "131033620", "religion": "muslim"}}, {"type": "way", "id": 659677692, "center": {"lat": 56.0699809, "lon": -3.4356136}, "tags": {"addr:housenumber": "125", "addr:postcode": "KY11 4AE", "addr:street": "Woodmill Road", "amenity": "place_of_worship", "building": "yes", "name": "Dunfermline Islamic Centre", "ref:GB:uprn": "320200460", "religion": "muslim"}}, {"type": "way", "id": 766475726, "center": {"lat": 55.8660139, "lon": -4.2900324}, "tags": {"addr:city": "Glasgow", "addr:housename": "Baitur Rahman Mosque Glasgow", "addr:housenumber": "8", "addr:postcode": "G3 8TR", "addr:street": "Haugh Road", "alt_name": "Baitur Rahman Mosque;Baitur Rahman", "alt_name:ur": "\u0628\u06cc\u062a \u0627\u0644\u0631\u062d\u0645\u0627\u0646;\u0645\u0633\u062c\u062f \u0628\u06cc\u062a \u0627\u0644\u0631\u062d\u0645\u0646", "amenity": "place_of_worship", "building": "yes", "contact:phone": "+44 141 334 7931", "denomination": "ahmadiyya", "name": "Bait-Ur-Rahman Mosque", "name:ur": "\u0645\u0633\u062c\u062f \u0628\u06cc\u062a \u0627\u0644\u0631\u062d\u0645\u0627\u0646", "religion": "muslim"}}, {"type": "way", "id": 786238859, "center": {"lat": 55.7696895, "lon": -4.3366499}, "tags": {"addr:city": "Glasgow", "addr:postcode": "G77 5AA", "addr:street": "Ayr Road", "amenity": "place_of_worship", "building": "yes", "name": "East Renfrewshire Islamic Centre", "ref:GB:uprn": "131031327", "religion": "muslim"}}, {"type": "way", "id": 843641877, "center": {"lat": 55.825653, "lon": -4.2825976}, "tags": {"addr:city": "Glasgow", "addr:housenumber": "275", "addr:postcode": "G41 3JW", "addr:street": "Tantallon Road", "amenity": "place_of_worship", "building": "yes", "building:levels": "2", "name": "Tantallon Road Mosque", "ref:GB:uprn": "906700365312", "religion": "muslim", "website": "https://www.jamiaislamiaglasgow.org.uk/"}}]